[{"ID Main Table":8351,"ID Site Name":888,"Tree Planted Qty":1,"Tree Species Breakdown":"","Tree Size":"30 gal.","Street Number":2026,"Street":"Chaparral Dr.","City":"Houston","State":"TX","Zip":77043,"lat":29.808919,"lng":-95.55742699999999},{"ID Main Table":8352,"ID Site Name":500,"Tree Planted Qty":4,"Tree Species Breakdown":"2- 5 Gal. Bottlebrush; 1 - 15 Gal. Bottlebrush; 1 - 15 Gal. Little Gem Magnolia","Tree Size":"5 gal., 15 gal.","Street Number":"","Street":"","City":"Houston","State":"TX","Zip":77031,"lat":29.6558257,"lng":-95.54597869999999},{"ID Main Table":8644,"ID Site Name":42,"Tree Planted Qty":6,"Tree Species Breakdown":"","Tree Size":"30 gal.","Street Number":8550,"Street":"Memorial Drive","City":"Houston","State":"TX","Zip":77024,"lat":29.7769338,"lng":-95.4524972},{"ID Main Table":8353,"ID Site Name":831,"Tree Planted Qty":5,"Tree Species Breakdown":"15 Gal.: 1 Green Giant Magnolia; 2 American Elm; 2 Live Oak","Tree Size":"15 gal.","Street Number":302,"Street":"Iowa Avenue (South)","City":"La Porte","State":"TX","Zip":77571,"lat":29.663431,"lng":-95.016009},{"ID Main Table":8354,"ID Site Name":866,"Tree Planted Qty":28,"Tree Species Breakdown":"","Tree Size":"3 gal.","Street Number":1322,"Street":"South Broadway Street","City":"La Porte","State":"TX","Zip":77571,"lat":29.649078,"lng":-95.019536},{"ID Main Table":8472,"ID Site Name":1146,"Tree Planted Qty":120,"Tree Species Breakdown":"20 Baldcypress; 30 Ironwood; 40 River Birch; 20 Chickasaw Plum; 10 Nuttall Oak","Tree Size":"5 gal.","Street Number":12581,"Street":"Dunlap Street","City":"Houston","State":"TX","Zip":77035,"lat":29.6387799,"lng":-95.49498919999999},{"ID Main Table":8350,"ID Site Name":1105,"Tree Planted Qty":25,"Tree Species Breakdown":"1 - 45 Gal. Bradford Pear; 4 - 15 Gal. Japanese Blueberry (from Alvin tree farm); 20 -15 Gal. Little Gem Magnolia","Tree Size":"15 gal., 45 gal.","Street Number":17355,"Street":"Groeschke Road","City":"Houston","State":"TX","Zip":77084,"lat":29.8149949,"lng":-95.66870139999999},{"ID Main Table":8369,"ID Site Name":1116,"Tree Planted Qty":16,"Tree Species Breakdown":"15 Gal. - 13 Live Oak; 3 Red Maple","Tree Size":"5 gal.","Street Number":"","Street":"","City":"Spring","State":"TX","Zip":77388,"lat":30.0570946,"lng":-95.46729619999999},{"ID Main Table":8356,"ID Site Name":1113,"Tree Planted Qty":18,"Tree Species Breakdown":"5 Gal. - 4 White Oak, 2 Shumard Oak, 5-15 gal Red Maple, 4- 15 gal. Overcup Oak; 15 Gal. - 3-15 gal Cherry Laurel","Tree Size":"5 gal., 15 gal.","Street Number":12543,"Street":"Westella Drive","City":"Houston","State":"TX","Zip":77077,"lat":29.7487909,"lng":-95.6045261},{"ID Main Table":8372,"ID Site Name":1118,"Tree Planted Qty":2,"Tree Species Breakdown":"1-30 gal Live Oak; 1-15 gal. Mex. White Oak","Tree Size":"15 gal., 30 gal.","Street Number":2927,"Street":"Swift Brook Geln Way","City":"Spring","State":"TX","Zip":77389,"lat":30.084296,"lng":-95.463082},{"ID Main Table":8365,"ID Site Name":500,"Tree Planted Qty":7,"Tree Species Breakdown":"3 Gal. - 4 Loblolly Pine; 1 Bur Oak; 1 Red Bud; 1 Mexican Plum","Tree Size":"3 gal.","Street Number":"","Street":"","City":"Humble","State":"TX","Zip":77346,"lat":29.9997656,"lng":-95.1744903},{"ID Main Table":8364,"ID Site Name":500,"Tree Planted Qty":13,"Tree Species Breakdown":"3 Gal. - 2 Poplar; 3 American Elm; 2 Bur Oak; 2 Nutall; 2 White Oak; 2 Red Bud","Tree Size":"3 gal.","Street Number":14138,"Street":"Champion Village Drive","City":"Houston","State":"TX","Zip":77069,"lat":29.984299,"lng":-95.539379},{"ID Main Table":8363,"ID Site Name":500,"Tree Planted Qty":4,"Tree Species Breakdown":"3 Gal. - 1 Poplar; 1 Loblolly Pine; 1 Nuttall; 1 Southern Magnolia","Tree Size":"3 gal.","Street Number":"","Street":"","City":"Cypress","State":"TX","Zip":77433,"lat":29.9643725,"lng":-95.7510475},{"ID Main Table":8362,"ID Site Name":500,"Tree Planted Qty":8,"Tree Species Breakdown":"3 Gal. - 3 Poplar; 1 Bald Cypress; 2 Loblolly Pine; 2 Bur Oak","Tree Size":"3 gal.","Street Number":"","Street":"","City":"Baytown","State":"TX","Zip":77521,"lat":29.8120015,"lng":-94.9558696},{"ID Main Table":8361,"ID Site Name":500,"Tree Planted Qty":1,"Tree Species Breakdown":"","Tree Size":"3 gal.","Street Number":17411,"Street":"Port O Call","City":"Crosby","State":"TX","Zip":77532,"lat":29.934543,"lng":-95.07968699999999},{"ID Main Table":8360,"ID Site Name":500,"Tree Planted Qty":26,"Tree Species Breakdown":"3 Gal. - 15 Bur Oak; 2 Sycamore; 9 American Holly","Tree Size":"3 gal.","Street Number":4131,"Street":"Inkberry Valley Ln.","City":"Houston","State":"TX","Zip":77045,"lat":29.644144,"lng":-95.440772},{"ID Main Table":8359,"ID Site Name":500,"Tree Planted Qty":14,"Tree Species Breakdown":"3 Gal. - 2 Poplar; 1 Bur Oak; 2 Flowering Dogwood; 2 American Holly; 2 American Beautyberry; 3 Nuttall; 2 Southern Magnolia","Tree Size":"3 gal.","Street Number":9958,"Street":"Ash Creek St.","City":"Brookshire","State":"TX","Zip":77423,"lat":29.7674997,"lng":-95.8857737},{"ID Main Table":8357,"ID Site Name":1114,"Tree Planted Qty":1,"Tree Species Breakdown":"","Tree Size":"15 gal.","Street Number":3005,"Street":"North 23rd Street","City":"La Porte","State":"TX","Zip":77571,"lat":29.6655982,"lng":-95.0420994},{"ID Main Table":8348,"ID Site Name":43,"Tree Planted Qty":550,"Tree Species Breakdown":"15 Gal.: 150 Texas Redbud; 134 Mexican White Oak; all from Schoebels;  133 Cedar Elm and 133 Bur Oak from Magnolia Gardens","Tree Size":"15 gal.","Street Number":"10806 - 12430","Street":"Bissonet St.","City":"Houston","State":"TX","Zip":77099,"lat":29.676755,"lng":-95.59675299999999},{"ID Main Table":8371,"ID Site Name":1117,"Tree Planted Qty":1,"Tree Species Breakdown":"Mexican Sycamore","Tree Size":"30 gal.","Street Number":3210,"Street":"Windfern Drive","City":"Pearland","State":"TX","Zip":77581,"lat":29.5475956,"lng":-95.23946989999999},{"ID Main Table":8370,"ID Site Name":500,"Tree Planted Qty":2,"Tree Species Breakdown":"","Tree Size":"5 gal.","Street Number":"","Street":"","City":"New Ulm","State":"TX","Zip":78950,"lat":29.8828295,"lng":-96.5143087},{"ID Main Table":8368,"ID Site Name":657,"Tree Planted Qty":2,"Tree Species Breakdown":"","Tree Size":"15 gal.","Street Number":8771,"Street":"Stella Link Rd","City":"Houston","State":"TX","Zip":77025,"lat":29.6882745,"lng":-95.4399282},{"ID Main Table":8366,"ID Site Name":1115,"Tree Planted Qty":8,"Tree Species Breakdown":"","Tree Size":"15 gal.","Street Number":7371,"Street":"Chasewood Drive","City":"Missouri City","State":"TX","Zip":77489,"lat":29.605985,"lng":-95.496489},{"ID Main Table":8373,"ID Site Name":1119,"Tree Planted Qty":4,"Tree Species Breakdown":"15 Gal. - 1 Loblolly Pine; 1 Yellow Poplar; 1 Southern Magnolia; 1 Bald Cypress","Tree Size":"15 gal.","Street Number":4471,"Street":"Beacon Hill Drive","City":"Seabrook","State":"TX","Zip":77586,"lat":29.5687091,"lng":-95.05782839999999},{"ID Main Table":8374,"ID Site Name":1120,"Tree Planted Qty":7,"Tree Species Breakdown":"","Tree Size":"15 gal.","Street Number":2700,"Street":"Red Bluff Street","City":"Seabrook","State":"TX","Zip":77586,"lat":29.5893064,"lng":-95.0327363},{"ID Main Table":8378,"ID Site Name":500,"Tree Planted Qty":4,"Tree Species Breakdown":"5 Gal. - 1 Redbud; 3 White Oak","Tree Size":"5 gal.","Street Number":"","Street":"","City":"Spring","State":"TX","Zip":77389,"lat":30.1014167,"lng":-95.509247},{"ID Main Table":8389,"ID Site Name":500,"Tree Planted Qty":312,"Tree Species Breakdown":"5 Gal. - 88 Bald Cypress; 20 Bur Oak; 10 Cedar Elm; 6 Jap. Blueberry; 116 Loblolly Pine; 10 Mexican Plum; 8 Poplar; 2 Red Maple; 10 Magnolia; 28 Swamp Chestnut Oak; 14 Was Myrtle","Tree Size":"5 gal.","Street Number":"","Street":"","City":"Houston","State":"TX","Zip":77071,"lat":29.6451476,"lng":-95.5249863},{"ID Main Table":8388,"ID Site Name":500,"Tree Planted Qty":4,"Tree Species Breakdown":"5 Gal. - 2 American Elm; 2 White Oak","Tree Size":"5 gal.","Street Number":"","Street":"","City":"Houston","State":"TX","Zip":77070,"lat":29.96018789999999,"lng":-95.5587992},{"ID Main Table":8387,"ID Site Name":500,"Tree Planted Qty":9,"Tree Species Breakdown":"5 Gal. - 3 Black Oak; 3 Bur Oak; 3 Paw Paw","Tree Size":"5 gal.","Street Number":"","Street":"","City":"Spring","State":"TX","Zip":77379,"lat":30.0314279,"lng":-95.5302337},{"ID Main Table":8386,"ID Site Name":500,"Tree Planted Qty":12,"Tree Species Breakdown":"5 Gal. - 12 Bald Cypress","Tree Size":"5 gal.","Street Number":"","Street":"","City":"Houston","State":"TX","Zip":77083,"lat":29.697594,"lng":-95.6510533},{"ID Main Table":8385,"ID Site Name":500,"Tree Planted Qty":181,"Tree Species Breakdown":"5 Gal. -9 Eastern Red Cedar; 33 American Elm; 29 Bald Cypress; 30 Bur Oak; 6 Dogwood; 24 Loblolly Pine; 31 Red Oak; 19 Southern Magnolia","Tree Size":"5 gal.","Street Number":"","Street":"","City":"Houston","State":"TX","Zip":"","lat":29.7604267,"lng":-95.3698028},{"ID Main Table":8384,"ID Site Name":500,"Tree Planted Qty":12,"Tree Species Breakdown":"5 Gal. - 1 Dogwood; 2 Hackberry; 1 Paw Paw; 1 Red Bud; 1 River Birch; 1 Sawtooth Oak; 2 Swamp Chestnut Oak; 3 Sycamore","Tree Size":"5 gal.","Street Number":"","Street":"","City":"Houston","State":"TX","Zip":77056,"lat":29.7484861,"lng":-95.4699173},{"ID Main Table":8383,"ID Site Name":500,"Tree Planted Qty":8,"Tree Species Breakdown":"5 Gal. - 2 American Elm; 2 Bald Cypress; 2 Bur Oak; 2 Post Oak","Tree Size":"5 gal.","Street Number":"","Street":"","City":"Humble","State":"TX","Zip":77339,"lat":30.0442264,"lng":-95.2162283},{"ID Main Table":8381,"ID Site Name":500,"Tree Planted Qty":2,"Tree Species Breakdown":"5 Gal. - 1 Poplar; 1 Swamp Chestnut Oak","Tree Size":"5 gal.","Street Number":"","Street":"","City":"Houston","State":"TX","Zip":77096,"lat":29.6699914,"lng":-95.4830243},{"ID Main Table":8376,"ID Site Name":500,"Tree Planted Qty":10,"Tree Species Breakdown":"5 Gal. - 2 Bur Oak; 1 Post Oak; 1 Red Bud; 4 Swamp Chestnut Oak; 2 White Oak","Tree Size":"5 gal.","Street Number":"","Street":"","City":"Huffman","State":"TX","Zip":77336,"lat":30.0260425,"lng":-95.08426100000001},{"ID Main Table":8375,"ID Site Name":500,"Tree Planted Qty":18,"Tree Species Breakdown":"5 Gal. - 1 Poplar; 3 Post Oak; 3 American Elm; 2 Bur Oak; 1 White Oak; 3 RedBud; 5 Red Oak","Tree Size":"5 gal.","Street Number":"","Street":"","City":"Humble","State":"TX","Zip":77396,"lat":29.99883119999999,"lng":-95.26215529999999},{"ID Main Table":8377,"ID Site Name":500,"Tree Planted Qty":9,"Tree Species Breakdown":"5 Gal. - 2 Bald Cypress; 3 Loblolly Pine; 2 Poplar; 2 White Oak","Tree Size":"5 gal.","Street Number":"","Street":"","City":"Houston","State":"TX","Zip":77009,"lat":29.7901812,"lng":-95.36778439999999},{"ID Main Table":8382,"ID Site Name":500,"Tree Planted Qty":3,"Tree Species Breakdown":"5 Gal. - 1 Red Oak; 2 White Oak","Tree Size":"5 gal.","Street Number":"","Street":"","City":"Spring","State":"TX","Zip":77373,"lat":30.0799405,"lng":-95.41716009999999},{"ID Main Table":8380,"ID Site Name":500,"Tree Planted Qty":35,"Tree Species Breakdown":"5 Gal. - 10 Bur Oak; 5 Red Oak; 10 Swamp Chestnut Oak; 10 White Oak","Tree Size":"5 gal.","Street Number":"","Street":"","City":"Pearland","State":"TX","Zip":77584,"lat":29.5321026,"lng":-95.3207069},{"ID Main Table":8390,"ID Site Name":500,"Tree Planted Qty":25,"Tree Species Breakdown":"","Tree Size":"Seedling","Street Number":1111,"Street":"Louisiana Street","City":"Houston","State":"TX","Zip":77002,"lat":29.75714799999999,"lng":-95.367977},{"ID Main Table":8392,"ID Site Name":1122,"Tree Planted Qty":13,"Tree Species Breakdown":"4 - 3 gal. Oleander; 1 - 5 gal. Oleander; 4 - 10 gal. S. Magnolia; 3 - 15 gal. Japanese Blueberry; 1 - 15 gal. Sycamore","Tree Size":"3 gal., 10 gal., 15 gal.","Street Number":11842,"Street":"Briar Forest Dr.","City":"Houston","State":"TX","Zip":77077,"lat":29.748602,"lng":-95.5881409},{"ID Main Table":8391,"ID Site Name":1121,"Tree Planted Qty":29,"Tree Species Breakdown":"15 Gal. - 10 Bottle Brush; 9 Cedar Elm; 6 Possumhaw Holly; 4 Crepemyrtle","Tree Size":"15 gal.","Street Number":1305,"Street":"Clay Street","City":"Richmond","State":"TX","Zip":77469,"lat":29.5897477,"lng":-95.77233439999999},{"ID Main Table":8396,"ID Site Name":1105,"Tree Planted Qty":66,"Tree Species Breakdown":"15 Gal. - 66 Cherry Laurel","Tree Size":"15 gal.","Street Number":17355,"Street":"Groeschke Road","City":"Houston","State":"TX","Zip":77084,"lat":29.8149949,"lng":-95.66870139999999},{"ID Main Table":8395,"ID Site Name":1123,"Tree Planted Qty":15,"Tree Species Breakdown":"15 Gal. - 6 Redbud; 9 Little Gem Magnolia","Tree Size":"15 gal.","Street Number":4202,"Street":"W. Alnut Street","City":"Pearland","State":"TX","Zip":77581,"lat":29.5592391,"lng":-95.289082},{"ID Main Table":8393,"ID Site Name":1120,"Tree Planted Qty":114,"Tree Species Breakdown":"45 Gal. - 100 Live Oak; 14 American Holly","Tree Size":"45 gal.","Street Number":"","Street":"","City":"Pasadena","State":"TX","Zip":77503,"lat":29.6945336,"lng":-95.1588464},{"ID Main Table":8412,"ID Site Name":500,"Tree Planted Qty":8,"Tree Species Breakdown":"3 Gal. - 1 Dogwood; 3 Magnolia; 1 Plum; 3 Redbud","Tree Size":"3 gal.","Street Number":"","Street":"","City":"Houston","State":"TX","Zip":77072,"lat":29.7002646,"lng":-95.587986},{"ID Main Table":8407,"ID Site Name":500,"Tree Planted Qty":5,"Tree Species Breakdown":"3 Gal. - 5 Cedar Elm","Tree Size":"3 gal.","Street Number":"","Street":"","City":"Houston","State":"TX","Zip":77007,"lat":29.7765065,"lng":-95.4201377},{"ID Main Table":8409,"ID Site Name":500,"Tree Planted Qty":13,"Tree Species Breakdown":"3 Gal. - 6 Longleaf Pine; 3 PawPaw; 4 Swamp Chestnut Oak","Tree Size":"3 gal.","Street Number":"","Street":"","City":"Houston","State":"TX","Zip":77019,"lat":29.7508512,"lng":-95.4122817},{"ID Main Table":8408,"ID Site Name":500,"Tree Planted Qty":8,"Tree Species Breakdown":"3 Gal. - 2 Baldcypress; 1 Bur Oak; 1 Cottonwood; 1 PawPaw; 1 Sycamore; 2 Yellow Poplar","Tree Size":"3 gal.","Street Number":"","Street":"","City":"Houston","State":"TX","Zip":77015,"lat":29.7690048,"lng":-95.1744903},{"ID Main Table":8411,"ID Site Name":500,"Tree Planted Qty":1,"Tree Species Breakdown":"3 Gal. - 1 American Elm","Tree Size":"3 gal.","Street Number":"","Street":"","City":"Houston","State":"TX","Zip":77024,"lat":29.77261379999999,"lng":-95.514493},{"ID Main Table":8413,"ID Site Name":500,"Tree Planted Qty":32,"Tree Species Breakdown":"3 Gal. - 2 Black Locust; 14 Loblolly Pine; 5 Longleaf Pine; 7 Redbud; 2 Sycamore; 2 White Oak","Tree Size":"3 gal.","Street Number":"","Street":"","City":"Houston","State":"TX","Zip":77091,"lat":29.8564302,"lng":-95.4410924},{"ID Main Table":8414,"ID Site Name":500,"Tree Planted Qty":6,"Tree Species Breakdown":"3 Gal. - 2 American Elm; 1 Black Oak; 1 Chinkapin Oak; 1 Post Oak; 1 Swamp Chestnut Oak","Tree Size":"3 gal.","Street Number":"","Street":"","City":"Huffman","State":"TX","Zip":77336,"lat":30.0260425,"lng":-95.08426100000001},{"ID Main Table":8416,"ID Site Name":500,"Tree Planted Qty":5,"Tree Species Breakdown":"3 Gal. - 1 Chinkapin Oak; 2 Loblolly Pine; 1 Longleaf Pine; 1 Post Oak","Tree Size":"3 gal.","Street Number":"","Street":"","City":"Kingwood","State":"TX","Zip":77345,"lat":30.0522464,"lng":-95.1588464},{"ID Main Table":8417,"ID Site Name":500,"Tree Planted Qty":5,"Tree Species Breakdown":"3 Gal. - 1 Dogwood; 1 Magnolia; 3 Yellow Poplar","Tree Size":"3 gal.","Street Number":"","Street":"","City":"Humble","State":"TX","Zip":77346,"lat":29.9997656,"lng":-95.1744903},{"ID Main Table":8418,"ID Site Name":500,"Tree Planted Qty":31,"Tree Species Breakdown":"3 Gal. - 1 American Elm; 5 Bur Oak; 2 Cottonwood; 7 Magnolia; 5 Redbud; 1 Red Oak; 5 Swamp Chestnut Oak; 5 White Oak","Tree Size":"3 gal.","Street Number":"","Street":"","City":"New Caney","State":"TX","Zip":77357,"lat":30.1550179,"lng":-95.21551579999999},{"ID Main Table":8419,"ID Site Name":500,"Tree Planted Qty":3,"Tree Species Breakdown":"3 Gal. - 2 American Elm; 1 Magnolia","Tree Size":"3 gal.","Street Number":"","Street":"","City":"Cypress","State":"TX","Zip":77433,"lat":29.9643725,"lng":-95.7510475},{"ID Main Table":8420,"ID Site Name":500,"Tree Planted Qty":12,"Tree Species Breakdown":"3 Gal. - 3 Bur Oak; 3 Cedar Elm; 2 Redbud; 2 Shumard Oak; 2 Swamp Chestnut Oak","Tree Size":"3 gal.","Street Number":"","Street":"","City":"Missouri City","State":"TX","Zip":77549,"lat":29.7147415,"lng":-94.9948501},{"ID Main Table":8421,"ID Site Name":500,"Tree Planted Qty":15,"Tree Species Breakdown":"3 Gal. - 2 Green Ash; 3 Baldcypress; 2 Redbud; 3 Shumard Oak; 5 White Oak","Tree Size":"3 gal.","Street Number":"","Street":"","City":"Baytown","State":"TX","Zip":77521,"lat":29.8120015,"lng":-94.9558696},{"ID Main Table":8410,"ID Site Name":500,"Tree Planted Qty":29,"Tree Species Breakdown":"3 gal. - 19 Loblolly Pine; 3 Magnolia; 1 PawPaw; 2 Redbud; 2 Sweetgum; 2 Sycamore","Tree Size":"3 gal.","Street Number":"","Street":"","City":"Houston","State":"TX","Zip":77024,"lat":29.77261379999999,"lng":-95.514493},{"ID Main Table":8415,"ID Site Name":500,"Tree Planted Qty":12,"Tree Species Breakdown":"3 Gal. - 1 American Elm; 3 Bald Cypress; 1 Bur Oak; 1 Longleaf Pine; 3 Post Oak; 1 Shumard Oak; 1 Texas Ebony; 1 White Oak","Tree Size":"3 gal.","Street Number":"","Street":"","City":"Kingwood","State":"TX","Zip":77339,"lat":30.0442264,"lng":-95.2162283},{"ID Main Table":8397,"ID Site Name":1125,"Tree Planted Qty":1,"Tree Species Breakdown":"15 Gal. Live Oak","Tree Size":"15 gal.","Street Number":3727,"Street":"R.R. 1431 West","City":"Kingsland","State":"TX","Zip":78639,"lat":30.6550495,"lng":-98.4416857},{"ID Main Table":8404,"ID Site Name":1126,"Tree Planted Qty":61,"Tree Species Breakdown":"5 Gal. - 15 Bottlebrush, 6 Desert Willow, 6 Sycamore, 6 Red Maple, 4 Bur Oak, 1 Loblolly Pine, 6 Mexican White Oak, 1 Shumard Oak; 10 Gal. - 15 Parsley Hawthorn; 15 Gal. - 1 Button Bush","Tree Size":"5 gal., 10 gal., 15 gal.","Street Number":10176,"Street":"Pooles Rd.","City":"Montgomery","State":"TX","Zip":77356,"lat":30.397927,"lng":-95.73542599999999},{"ID Main Table":8403,"ID Site Name":1126,"Tree Planted Qty":11,"Tree Species Breakdown":"5 Gal. - 1 Redbud;6 Red Bay; 15 Gal. - 1 Yellow Poplar, 2 Crapemyrtle, 1 Swamp Chestnut Oak","Tree Size":"5 gal., 15 gal.","Street Number":10176,"Street":"Pooles Rd.","City":"Montgomery","State":"TX","Zip":77356,"lat":30.397927,"lng":-95.73542599999999},{"ID Main Table":8394,"ID Site Name":635,"Tree Planted Qty":1,"Tree Species Breakdown":"10 Gal. Pecan","Tree Size":"10 gal.","Street Number":618,"Street":"San Jacinto Street","City":"La Porte","State":"TX","Zip":77571,"lat":29.6597651,"lng":-95.01585200000001},{"ID Main Table":8427,"ID Site Name":1133,"Tree Planted Qty":2,"Tree Species Breakdown":"15 Gal. - 2 Live Oak","Tree Size":"15 gal.","Street Number":8226,"Street":"Jasmine Court","City":"Richmond","State":"TX","Zip":77469,"lat":29.5279169,"lng":-95.73809999999999},{"ID Main Table":8428,"ID Site Name":1134,"Tree Planted Qty":4,"Tree Species Breakdown":"15 Gal. - 2 Cedar Elm; 2 Red Maple","Tree Size":"15 gal.","Street Number":205,"Street":"Roberts Street","City":"Houston","State":"TX","Zip":77003,"lat":29.7508145,"lng":-95.3404704},{"ID Main Table":8406,"ID Site Name":1127,"Tree Planted Qty":70,"Tree Species Breakdown":"3 Gal. - 9 PawPaw; 5 Hornbeam; 5 Pecan; 11 Redbud; 11 Dogwood; 5 Mayhaw; 3 Easter Red Cedar; 1 Longleaf Pine; 1 Loblolly Pine; 5 White Oak; 3 Swamp Chestnut Oak; 6 Post Oak; 5 Elder Berry","Tree Size":"3 gal.","Street Number":4501,"Street":"Woodway Dr.","City":"Houston","State":"TX","Zip":77024,"lat":29.76520709999999,"lng":-95.4520253},{"ID Main Table":8432,"ID Site Name":833,"Tree Planted Qty":22,"Tree Species Breakdown":"15 Gal. - 3 Yellow Poplar, 3 River Birch, 5 Loblolly Pine, 5 Little Gem Magnolia, 3 Parsley Hawthorne, 3 Desert Willow","Tree Size":"15 gal.","Street Number":9821,"Street":"Timberside Drive","City":"Houston","State":"TX","Zip":77025,"lat":29.6751106,"lng":-95.43184219999999},{"ID Main Table":8400,"ID Site Name":1130,"Tree Planted Qty":21,"Tree Species Breakdown":"5 Gal. - 1 Oleander, 1 Chocolate Vine; 10 Gal. - 4 Sycamore, 6 Crepe Myrtle; 15 Gal. - 4 Wax Myrtle, 1 Yellow Poplar, 4 American Elm","Tree Size":"5 gal., 10 gal., 15 gal.","Street Number":318,"Street":"Bay Area Boulevard","City":"Webster","State":"TX","Zip":77598,"lat":29.54739189999999,"lng":-95.1327817},{"ID Main Table":8399,"ID Site Name":1129,"Tree Planted Qty":9,"Tree Species Breakdown":"9 - 30 Gal. Live Oak","Tree Size":"30 gal.","Street Number":4800,"Street":"Village Corner Drive","City":"Pasadena","State":"TX","Zip":77059,"lat":29.6044073,"lng":-95.097194},{"ID Main Table":8398,"ID Site Name":1128,"Tree Planted Qty":30,"Tree Species Breakdown":"30 - 3 Gal. Shumard Oak","Tree Size":"3 gal.","Street Number":1819,"Street":"Lakeside Drive","City":"Sealy","State":"TX","Zip":77474,"lat":29.788608,"lng":-96.17792399999999},{"ID Main Table":8401,"ID Site Name":1131,"Tree Planted Qty":70,"Tree Species Breakdown":"30 Gal. - 3 Red Maple, 12 Montezuma Cypress, 8 Sweetbay Magnolia, 6 Fringe Tree; 65 Gal. - 26 Mexican Sycamore, 15 Monterrey Oak","Tree Size":"30 gal., 65 gal.","Street Number":4300,"Street":"Mandell Street","City":"Houston","State":"TX","Zip":77006,"lat":29.7343618,"lng":-95.3995391},{"ID Main Table":8447,"ID Site Name":500,"Tree Planted Qty":100,"Tree Species Breakdown":"","Tree Size":"Seedling","Street Number":601,"Street":"Jefferson Street","City":"Houston","State":"TX","Zip":77002,"lat":29.7531883,"lng":-95.3724026},{"ID Main Table":8431,"ID Site Name":736,"Tree Planted Qty":25,"Tree Species Breakdown":"15 Gal. - 5 Loblolly Pine, 5 Cedar Elm, 5 Sweet Gum, 5 Shumard Oak, 5 Montezuma Cypress","Tree Size":"15 gal.","Street Number":"","Street":"McKamy Drive","City":"Houston","State":"TX","Zip":77067,"lat":29.9448648,"lng":-95.4595555},{"ID Main Table":8402,"ID Site Name":281,"Tree Planted Qty":11,"Tree Species Breakdown":"30 Gal. - 4 Live Oak, 2 White Oak, 4 'Natchez' Crape Myrtle; 45 Gal. - 1 Live Oak","Tree Size":"30 gal., 45 gal.","Street Number":4318,"Street":"Lake Grove Rd","City":"Seabrook","State":"TX","Zip":77586,"lat":29.584159,"lng":-95.059727},{"ID Main Table":8430,"ID Site Name":938,"Tree Planted Qty":1,"Tree Species Breakdown":"30 Gal. - 1 Live Oak","Tree Size":"30 gal.","Street Number":1827,"Street":"Norfolk","City":"Houston","State":"TX","Zip":77098,"lat":29.732339,"lng":-95.405689},{"ID Main Table":8429,"ID Site Name":1135,"Tree Planted Qty":14,"Tree Species Breakdown":"30 Gal. - 1 Bur Oak; 15 Gal. - 6 Shumard Oak, 1 Sycamore, 6 Mexican White Oak","Tree Size":"15 gal., 30 gal.","Street Number":11977,"Street":"Memorial Drive","City":"Houston","State":"TX","Zip":77024,"lat":29.761874,"lng":-95.53897099999999},{"ID Main Table":8425,"ID Site Name":273,"Tree Planted Qty":75,"Tree Species Breakdown":"15 Gal. - 75 Bald Cypress","Tree Size":"15 gal.","Street Number":10502,"Street":"Briar Forest","City":"Houston","State":"TX","Zip":77042,"lat":29.74893789999999,"lng":-95.56093589999999},{"ID Main Table":8439,"ID Site Name":1140,"Tree Planted Qty":25,"Tree Species Breakdown":"3 Gal. - 16 Long Leaf Pine; 3 Redbud; 3 Ironwood; 3 Pawpaw","Tree Size":"3 gal.","Street Number":"","Street":"","City":"Corrigan","State":"TX","Zip":75939,"lat":30.9968565,"lng":-94.8271527},{"ID Main Table":8423,"ID Site Name":1132,"Tree Planted Qty":27,"Tree Species Breakdown":"15 Gal. - 4 Bald Cypress, 10 Vitex, 3 Chinese Pistache, 3 Redbud, 2 Monterrey Oak; 7 Gallon - 5 Eve's Necklace","Tree Size":"15 gal., 7 gal., 20 gal.","Street Number":14240,"Street":"Memorial Drive","City":"Houston","State":"TX","Zip":77079,"lat":29.7715672,"lng":-95.5966589},{"ID Main Table":8424,"ID Site Name":756,"Tree Planted Qty":110,"Tree Species Breakdown":"3 Gal. - 50 Wax Myrtle; 10 Shumard Oak; 10 Bur Oak; 10 Eastern Red Cedar; 10 American Elm; 17 Chicksaw Plum; 3 Parsley Hawthorne","Tree Size":"3 gal.","Street Number":4600,"Street":"Clinton Dr","City":"Houston","State":"TX","Zip":77020,"lat":29.765063,"lng":-95.323851},{"ID Main Table":8405,"ID Site Name":445,"Tree Planted Qty":10,"Tree Species Breakdown":"15 Gal. - 5 Sawtooth Oak, 5 Cedar Elm (Centerpoint)","Tree Size":"15 gal.","Street Number":600,"Street":"Quiltman Street","City":"Houston","State":"TX","Zip":77009,"lat":29.7808256,"lng":-95.362482},{"ID Main Table":8438,"ID Site Name":1139,"Tree Planted Qty":27,"Tree Species Breakdown":"15 Gal. - 11 Little Gem Magnolia; 1 Shumard Oak; 3 Red Maple; 2 Live Oak; 6 Redbud; 4 Cedar Elm","Tree Size":"15 gal.","Street Number":9900,"Street":"Neuens Rd","City":"Houston","State":"TX","Zip":77080,"lat":29.8072021,"lng":-95.5380629},{"ID Main Table":8434,"ID Site Name":1136,"Tree Planted Qty":21,"Tree Species Breakdown":"15 Gal. - 11 Live Oak; 3 Cedar Elm; 7 American Elm","Tree Size":"15 gal.","Street Number":10701,"Street":"Seaford","City":"Houston","State":"TX","Zip":77089,"lat":29.614029,"lng":-95.22801100000001},{"ID Main Table":8437,"ID Site Name":1124,"Tree Planted Qty":6,"Tree Species Breakdown":"3 Gal. - 3 Redbud; 3 Yellow Poplar","Tree Size":"3 gal.","Street Number":"","Street":"","City":"","State":"TX","Zip":"","lat":31.9685988,"lng":-99.9018131},{"ID Main Table":8436,"ID Site Name":1138,"Tree Planted Qty":1512,"Tree Species Breakdown":"5 Gal. - 200 Overcup; 200 Bur; 150 Pecan; 100 Swamp White; 400 Long Leaf; 97 Magnolia; 500 Sawtooth; 103 Redbud; 400 Hickory Water; 400 Swamp Chestnut; 500 Shumard; 205 Water Oak; 45 American Elm; 100 Cedar Elm; 150 Loblolly","Tree Size":"5 gal.","Street Number":"","Street":"","City":"","State":"TX","Zip":"","lat":31.9685988,"lng":-99.9018131},{"ID Main Table":8442,"ID Site Name":616,"Tree Planted Qty":300,"Tree Species Breakdown":"200 Loblolly Pine Seedlings from Rennerwood; 3 Gal. - 20 Overcup Oak; 20 Water Oak; 20 Cedar Elm; 15 Shumard Oak; 20 Chickasaw Plum; all from Chevron;  5 Magnolia from CenterPoint","Tree Size":"3 gal., Seedling","Street Number":2365,"Street":"Rice Blvd","City":"Houston","State":"TX","Zip":77005,"lat":29.717092,"lng":-95.41421980000001},{"ID Main Table":8443,"ID Site Name":668,"Tree Planted Qty":61,"Tree Species Breakdown":"15 Gal. - 14 Live Oak, 24 Red Oak; 5 Gal. - 6 Cedar Elm; 3 Gal. - 15 Bald Cypress; all from CenterPoint;  2 Chickasaw Plum from Chevron","Tree Size":"3 gal., 5 gal., 15 gal.","Street Number":5858,"Street":"Chimney Rock Road","City":"Houston","State":"TX","Zip":77081,"lat":29.7184504,"lng":-95.4772735},{"ID Main Table":8441,"ID Site Name":183,"Tree Planted Qty":1,"Tree Species Breakdown":"30 Gal. - 1 Nuttall Oak","Tree Size":"30 gal.","Street Number":3315,"Street":"Ferndale","City":"Houston","State":"TX","Zip":77098,"lat":29.735166,"lng":-95.42150699999999},{"ID Main Table":8445,"ID Site Name":1143,"Tree Planted Qty":19,"Tree Species Breakdown":"5 Gal. - 9 Cedar Elm; 8 Magnolia; 1 White Oak; 1 Bur Oak","Tree Size":"5 gal.","Street Number":6740,"Street":"Seegers Trail","City":"Houston","State":"TX","Zip":77066,"lat":29.949554,"lng":-95.517004},{"ID Main Table":8435,"ID Site Name":1137,"Tree Planted Qty":15,"Tree Species Breakdown":"15 Gal. - 2 Pecan from Bownds; 2 Crepe myrtle rom CenterPoint; 3 Sycamore from LA porte; 5 Live Oak from Bownds; 3 American Elm from Alporte","Tree Size":"15 gal.","Street Number":905,"Street":"Hwy 3 North","City":"Texas City","State":"TX","Zip":77591,"lat":29.390938,"lng":-94.984842},{"ID Main Table":8422,"ID Site Name":1141,"Tree Planted Qty":50,"Tree Species Breakdown":"5 Gal. - 10 Pecan; 10 River Birch; 10 Sawtooth Oak; 10 Chickasaw Plum; 10 Redbud","Tree Size":"5 gal.","Street Number":520,"Street":"Willowbend","City":"Houston","State":"TX","Zip":77035,"lat":29.6644488,"lng":-95.4577683},{"ID Main Table":8433,"ID Site Name":1142,"Tree Planted Qty":200,"Tree Species Breakdown":"5 Gal. - 61 Loblolly Pine; 15 White Oak; 32 Overcup Oak; 34 Bur Oak; 30 Swamp Chestnut Oak; 28 Black Gum","Tree Size":"5 gal.","Street Number":9920,"Street":"Porto Rico Rd","City":"Houston","State":"TX","Zip":77041,"lat":29.8477217,"lng":-95.53924839999999},{"ID Main Table":8440,"ID Site Name":736,"Tree Planted Qty":25,"Tree Species Breakdown":"15 Gal. - 6 Loblolly; 5 Cedar Elm; 6 Red Maple; 8 Shumard Oak","Tree Size":"15 gal.","Street Number":4127,"Street":"Breckenridge Dr.","City":"Houston","State":"TX","Zip":77066,"lat":29.946545,"lng":-95.485804},{"ID Main Table":8502,"ID Site Name":100,"Tree Planted Qty":3,"Tree Species Breakdown":"","Tree Size":"15 gal.","Street Number":2349,"Street":"Bellefontaine Street","City":"Houston","State":"TX","Zip":77030,"lat":29.703287,"lng":-95.41439799999999},{"ID Main Table":8426,"ID Site Name":500,"Tree Planted Qty":125,"Tree Species Breakdown":"125 Cherrybark Oak Seedlings","Tree Size":"Seedling","Street Number":"","Street":"","City":"Houston","State":"TX","Zip":77054,"lat":29.6849782,"lng":-95.39919069999999},{"ID Main Table":8444,"ID Site Name":1144,"Tree Planted Qty":125,"Tree Species Breakdown":"125 Cherrybark Oak Seedlings","Tree Size":"Seedling","Street Number":4103,"Street":"Brisbane Street","City":"Houston","State":"TX","Zip":77047,"lat":29.6384206,"lng":-95.3619705},{"ID Main Table":8452,"ID Site Name":838,"Tree Planted Qty":41,"Tree Species Breakdown":"28 Swamp Chesnut Oak From Doremus; 7 Cedar Elm from Center Point; 6 Loblolly Pine from La Porte","Tree Size":"15 gal.","Street Number":200,"Street":"Mississippi Street","City":"Houston","State":"TX","Zip":77029,"lat":29.7435935,"lng":-95.2619141},{"ID Main Table":8446,"ID Site Name":989,"Tree Planted Qty":75,"Tree Species Breakdown":"25 Bald Cypres; 25 Ironwood; 10 Nuttall; 15 Live Oak","Tree Size":"5 gal.","Street Number":5101,"Street":"Orange Blosson Court","City":"League City","State":"TX","Zip":77573,"lat":29.487622,"lng":-95.147133},{"ID Main Table":8474,"ID Site Name":1147,"Tree Planted Qty":3,"Tree Species Breakdown":"","Tree Size":"5 gal.","Street Number":2611,"Street":"Link Road","City":"Hosuton","State":"TX","Zip":77009,"lat":29.810529,"lng":-95.383786},{"ID Main Table":8468,"ID Site Name":390,"Tree Planted Qty":22,"Tree Species Breakdown":"18 live Oak from Riley Fuzzel; 4 Bald Cypress","Tree Size":"15 gal.","Street Number":10720,"Street":"Southview Street","City":"Houston","State":"TX","Zip":77047,"lat":29.6428183,"lng":-95.3666733},{"ID Main Table":8473,"ID Site Name":351,"Tree Planted Qty":18,"Tree Species Breakdown":"","Tree Size":"5 gal.","Street Number":802,"Street":"TC Jester Boulevard","City":"Houston","State":"TX","Zip":77008,"lat":29.786911,"lng":-95.416422},{"ID Main Table":8467,"ID Site Name":1096,"Tree Planted Qty":10,"Tree Species Breakdown":"LSU Purple Fig","Tree Size":"15 gal.","Street Number":6654,"Street":"Gulf Freeway","City":"Houston","State":"TX","Zip":77087,"lat":29.705637,"lng":-95.303333},{"ID Main Table":8497,"ID Site Name":300,"Tree Planted Qty":10,"Tree Species Breakdown":"","Tree Size":"15 gal.","Street Number":8814,"Street":"Rice (South ) Avenue","City":"Houston","State":"TX","Zip":77096,"lat":29.683082,"lng":-95.46913599999999},{"ID Main Table":8501,"ID Site Name":866,"Tree Planted Qty":9,"Tree Species Breakdown":"6 Loblolly Pine; 3 American Sycamore","Tree Size":"15 gal.","Street Number":"","Street":"","City":"La Porte","State":"TX","Zip":77571,"lat":29.6657838,"lng":-95.0193728},{"ID Main Table":8471,"ID Site Name":1146,"Tree Planted Qty":50,"Tree Species Breakdown":"10 White Oak; 10 Chiquapin Oak; 10 American Elm; 10 Loblolly Pine; 10 Eastpalatka Holly","Tree Size":"5 gal.","Street Number":12581,"Street":"Dunlap Street","City":"Houston","State":"TX","Zip":77035,"lat":29.6387799,"lng":-95.49498919999999},{"ID Main Table":8499,"ID Site Name":1148,"Tree Planted Qty":10,"Tree Species Breakdown":"","Tree Size":"5 gal.","Street Number":1100,"Street":"Merrill Street","City":"Houston","State":"TX","Zip":77009,"lat":29.7892272,"lng":-95.38609079999999},{"ID Main Table":8051,"ID Site Name":955,"Tree Planted Qty":1,"Tree Species Breakdown":"","Tree Size":"15 gal.","Street Number":5521,"Street":"Gasmer Road","City":"Houston","State":"TX","Zip":77035,"lat":29.650997,"lng":-95.474056},{"ID Main Table":8058,"ID Site Name":955,"Tree Planted Qty":1,"Tree Species Breakdown":"","Tree Size":"15 gal.","Street Number":5521,"Street":"Gasmer Road","City":"Houston","State":"TX","Zip":77035,"lat":29.650997,"lng":-95.474056},{"ID Main Table":8057,"ID Site Name":955,"Tree Planted Qty":1,"Tree Species Breakdown":"","Tree Size":"15 gal.","Street Number":5521,"Street":"Gasmer Road","City":"Houston","State":"TX","Zip":77035,"lat":29.650997,"lng":-95.474056},{"ID Main Table":8059,"ID Site Name":955,"Tree Planted Qty":1,"Tree Species Breakdown":"","Tree Size":"15 gal.","Street Number":5521,"Street":"Gasmer Road","City":"Houston","State":"TX","Zip":77035,"lat":29.650997,"lng":-95.474056},{"ID Main Table":8049,"ID Site Name":955,"Tree Planted Qty":1,"Tree Species Breakdown":"","Tree Size":"15 gal.","Street Number":5521,"Street":"Gasmer Road","City":"Houston","State":"TX","Zip":77035,"lat":29.650997,"lng":-95.474056},{"ID Main Table":8074,"ID Site Name":955,"Tree Planted Qty":1,"Tree Species Breakdown":"","Tree Size":"15 gal.","Street Number":5521,"Street":"Gasmer Road","City":"Houston","State":"TX","Zip":77035,"lat":29.650997,"lng":-95.474056},{"ID Main Table":8075,"ID Site Name":955,"Tree Planted Qty":1,"Tree Species Breakdown":"","Tree Size":"15 gal.","Street Number":5521,"Street":"Gasmer Road","City":"Houston","State":"TX","Zip":77035,"lat":29.650997,"lng":-95.474056},{"ID Main Table":8031,"ID Site Name":955,"Tree Planted Qty":1,"Tree Species Breakdown":"","Tree Size":"15 gal.","Street Number":5521,"Street":"Gasmer Road","City":"Houston","State":"TX","Zip":77035,"lat":29.650997,"lng":-95.474056},{"ID Main Table":8030,"ID Site Name":955,"Tree Planted Qty":1,"Tree Species Breakdown":"","Tree Size":"15 gal.","Street Number":5521,"Street":"Gasmer Road","City":"Houston","State":"TX","Zip":77035,"lat":29.650997,"lng":-95.474056},{"ID Main Table":8026,"ID Site Name":955,"Tree Planted Qty":1,"Tree Species Breakdown":"","Tree Size":"15 gal.","Street Number":5521,"Street":"Gasmer Road","City":"Houston","State":"TX","Zip":77035,"lat":29.650997,"lng":-95.474056},{"ID Main Table":8266,"ID Site Name":955,"Tree Planted Qty":1,"Tree Species Breakdown":"","Tree Size":"15 gal.","Street Number":5521,"Street":"Gasmer Road","City":"Houston","State":"TX","Zip":77035,"lat":29.650997,"lng":-95.474056},{"ID Main Table":8070,"ID Site Name":955,"Tree Planted Qty":1,"Tree Species Breakdown":"","Tree Size":"15 gal.","Street Number":5521,"Street":"Gasmer Road","City":"Houston","State":"TX","Zip":77035,"lat":29.650997,"lng":-95.474056},{"ID Main Table":8355,"ID Site Name":955,"Tree Planted Qty":1,"Tree Species Breakdown":"","Tree Size":"15 gal.","Street Number":5521,"Street":"Gasmer Road","City":"Houston","State":"TX","Zip":77035,"lat":29.650997,"lng":-95.474056},{"ID Main Table":7743,"ID Site Name":955,"Tree Planted Qty":1,"Tree Species Breakdown":"","Tree Size":"15 gal.","Street Number":5521,"Street":"Gasmer Road","City":"Houston","State":"TX","Zip":77035,"lat":29.650997,"lng":-95.474056},{"ID Main Table":8358,"ID Site Name":955,"Tree Planted Qty":1,"Tree Species Breakdown":"","Tree Size":"15 gal.","Street Number":5521,"Street":"Gasmer Road","City":"Houston","State":"TX","Zip":77035,"lat":29.650997,"lng":-95.474056},{"ID Main Table":8055,"ID Site Name":955,"Tree Planted Qty":1,"Tree Species Breakdown":"","Tree Size":"15 gal.","Street Number":5521,"Street":"Gasmer Road","City":"Houston","State":"TX","Zip":77035,"lat":29.650997,"lng":-95.474056},{"ID Main Table":8036,"ID Site Name":955,"Tree Planted Qty":1,"Tree Species Breakdown":"","Tree Size":"15 gal.","Street Number":5521,"Street":"Gasmer Road","City":"Houston","State":"TX","Zip":77035,"lat":29.650997,"lng":-95.474056},{"ID Main Table":8037,"ID Site Name":955,"Tree Planted Qty":1,"Tree Species Breakdown":"","Tree Size":"15 gal.","Street Number":5521,"Street":"Gasmer Road","City":"Houston","State":"TX","Zip":77035,"lat":29.650997,"lng":-95.474056},{"ID Main Table":8028,"ID Site Name":955,"Tree Planted Qty":1,"Tree Species Breakdown":"","Tree Size":"15 gal.","Street Number":5521,"Street":"Gasmer Road","City":"Houston","State":"TX","Zip":77035,"lat":29.650997,"lng":-95.474056},{"ID Main Table":8038,"ID Site Name":955,"Tree Planted Qty":1,"Tree Species Breakdown":"","Tree Size":"15 gal.","Street Number":5521,"Street":"Gasmer Road","City":"Houston","State":"TX","Zip":77035,"lat":29.650997,"lng":-95.474056},{"ID Main Table":8029,"ID Site Name":955,"Tree Planted Qty":1,"Tree Species Breakdown":"","Tree Size":"15 gal.","Street Number":5521,"Street":"Gasmer Road","City":"Houston","State":"TX","Zip":77035,"lat":29.650997,"lng":-95.474056},{"ID Main Table":8021,"ID Site Name":955,"Tree Planted Qty":1,"Tree Species Breakdown":"","Tree Size":"15 gal.","Street Number":5521,"Street":"Gasmer Road","City":"Houston","State":"TX","Zip":77035,"lat":29.650997,"lng":-95.474056},{"ID Main Table":7915,"ID Site Name":955,"Tree Planted Qty":1,"Tree Species Breakdown":"","Tree Size":"15 gal.","Street Number":5521,"Street":"Gasmer Road","City":"Houston","State":"TX","Zip":77035,"lat":29.650997,"lng":-95.474056},{"ID Main Table":7792,"ID Site Name":955,"Tree Planted Qty":1,"Tree Species Breakdown":"","Tree Size":"15 gal.","Street Number":5521,"Street":"Gasmer Road","City":"Houston","State":"TX","Zip":77035,"lat":29.650997,"lng":-95.474056},{"ID Main Table":7936,"ID Site Name":955,"Tree Planted Qty":1,"Tree Species Breakdown":"","Tree Size":"15 gal.","Street Number":5521,"Street":"Gasmer Road","City":"Houston","State":"TX","Zip":77035,"lat":29.650997,"lng":-95.474056},{"ID Main Table":8462,"ID Site Name":564,"Tree Planted Qty":46,"Tree Species Breakdown":"35-30 gal Live Oak from Riley Fuzzel; 15 gal trees from TFH La Porte Farm- 2 Loblolly Pine, 2 Crape Myrtle; 3 Sawthooth Oak, 4 Yellow Poplar","Tree Size":"15 gal., 30 gal.","Street Number":"","Street":"Wheeler Street","City":"Houston","State":"TX","Zip":77023,"lat":29.7088542,"lng":-95.31805879999999},{"ID Main Table":8500,"ID Site Name":1150,"Tree Planted Qty":1,"Tree Species Breakdown":"","Tree Size":"30 gal.","Street Number":4153,"Street":"Oberling Street","City":"Houston","State":"TX","Zip":77005,"lat":29.711463,"lng":-95.44507},{"ID Main Table":8615,"ID Site Name":497,"Tree Planted Qty":150,"Tree Species Breakdown":"Mixed species ( see attached full project specie list)","Tree Size":"5 gal.","Street Number":3535,"Street":"War Memorial Drive","City":"Houston","State":"TX","Zip":77084,"lat":29.827242,"lng":-95.614142},{"ID Main Table":8527,"ID Site Name":955,"Tree Planted Qty":"","Tree Species Breakdown":"","Tree Size":"15 gal.","Street Number":5512,"Street":"Gasmer Road","City":"Houston","State":"TX","Zip":77035,"lat":29.6509796,"lng":-95.4744702},{"ID Main Table":8063,"ID Site Name":955,"Tree Planted Qty":1,"Tree Species Breakdown":"","Tree Size":"15 gal.","Street Number":5521,"Street":"Gasmer Road","City":"Houston","State":"TX","Zip":77035,"lat":29.650997,"lng":-95.474056},{"ID Main Table":8062,"ID Site Name":955,"Tree Planted Qty":1,"Tree Species Breakdown":"","Tree Size":"30 gal.","Street Number":5521,"Street":"Gasmer Road","City":"Houston","State":"TX","Zip":77035,"lat":29.650997,"lng":-95.474056},{"ID Main Table":8056,"ID Site Name":955,"Tree Planted Qty":1,"Tree Species Breakdown":"","Tree Size":"15 gal.","Street Number":5521,"Street":"Gasmer Road","City":"Houston","State":"TX","Zip":77035,"lat":29.650997,"lng":-95.474056},{"ID Main Table":8060,"ID Site Name":955,"Tree Planted Qty":1,"Tree Species Breakdown":"","Tree Size":"15 gal.","Street Number":5521,"Street":"Gasmer Road","City":"Houston","State":"TX","Zip":77035,"lat":29.650997,"lng":-95.474056},{"ID Main Table":8061,"ID Site Name":955,"Tree Planted Qty":1,"Tree Species Breakdown":"","Tree Size":"15 gal.","Street Number":5521,"Street":"Gasmer Road","City":"Houston","State":"TX","Zip":77035,"lat":29.650997,"lng":-95.474056},{"ID Main Table":8050,"ID Site Name":955,"Tree Planted Qty":1,"Tree Species Breakdown":"","Tree Size":"15 gal.","Street Number":5521,"Street":"Gasmer Road","City":"Houston","State":"TX","Zip":77035,"lat":29.650997,"lng":-95.474056},{"ID Main Table":8072,"ID Site Name":955,"Tree Planted Qty":1,"Tree Species Breakdown":"","Tree Size":"15 gal.","Street Number":5521,"Street":"Gasmer Road","City":"Houston","State":"TX","Zip":77035,"lat":29.650997,"lng":-95.474056},{"ID Main Table":8071,"ID Site Name":955,"Tree Planted Qty":1,"Tree Species Breakdown":"","Tree Size":"15 gal.","Street Number":5521,"Street":"Gasmer Road","City":"Houston","State":"TX","Zip":77035,"lat":29.650997,"lng":-95.474056},{"ID Main Table":8032,"ID Site Name":955,"Tree Planted Qty":1,"Tree Species Breakdown":"","Tree Size":"15 gal.","Street Number":5521,"Street":"Gasmer Road","City":"Houston","State":"TX","Zip":77035,"lat":29.650997,"lng":-95.474056},{"ID Main Table":8267,"ID Site Name":955,"Tree Planted Qty":1,"Tree Species Breakdown":"","Tree Size":"15 gal.","Street Number":5521,"Street":"Gasmer Road","City":"Houston","State":"TX","Zip":77035,"lat":29.650997,"lng":-95.474056},{"ID Main Table":8307,"ID Site Name":955,"Tree Planted Qty":1,"Tree Species Breakdown":"","Tree Size":"15 gal.","Street Number":5521,"Street":"Gasmer Road","City":"Houston","State":"TX","Zip":77035,"lat":29.650997,"lng":-95.474056},{"ID Main Table":8268,"ID Site Name":955,"Tree Planted Qty":1,"Tree Species Breakdown":"","Tree Size":"15 gal.","Street Number":5521,"Street":"Gasmer Road","City":"Houston","State":"TX","Zip":77035,"lat":29.650997,"lng":-95.474056},{"ID Main Table":8076,"ID Site Name":955,"Tree Planted Qty":1,"Tree Species Breakdown":"","Tree Size":"15 gal.","Street Number":5521,"Street":"Gasmer Road","City":"Houston","State":"TX","Zip":77035,"lat":29.650997,"lng":-95.474056},{"ID Main Table":8073,"ID Site Name":955,"Tree Planted Qty":1,"Tree Species Breakdown":"","Tree Size":"15 gal.","Street Number":5521,"Street":"Gasmer Road","City":"Houston","State":"TX","Zip":77035,"lat":29.650997,"lng":-95.474056},{"ID Main Table":8451,"ID Site Name":955,"Tree Planted Qty":"","Tree Species Breakdown":"","Tree Size":"15 gal.","Street Number":5521,"Street":"Gasmer Road","City":"Houston","State":"TX","Zip":77035,"lat":29.650997,"lng":-95.474056},{"ID Main Table":8528,"ID Site Name":955,"Tree Planted Qty":"","Tree Species Breakdown":"","Tree Size":"15 gal.","Street Number":5521,"Street":"Gasmer Road","City":"Houston","State":"TX","Zip":77035,"lat":29.650997,"lng":-95.474056},{"ID Main Table":8529,"ID Site Name":955,"Tree Planted Qty":"","Tree Species Breakdown":"","Tree Size":"15 gal.","Street Number":5521,"Street":"Gasmer Road","City":"Houston","State":"TX","Zip":77035,"lat":29.650997,"lng":-95.474056},{"ID Main Table":8530,"ID Site Name":955,"Tree Planted Qty":"","Tree Species Breakdown":"","Tree Size":"15 gal.","Street Number":5512,"Street":"Gasmer Road","City":"Houston","State":"TX","Zip":77035,"lat":29.6509796,"lng":-95.4744702},{"ID Main Table":8531,"ID Site Name":955,"Tree Planted Qty":"","Tree Species Breakdown":"","Tree Size":"15 gal.","Street Number":5521,"Street":"Gasmer Road","City":"Houston","State":"TX","Zip":77035,"lat":29.650997,"lng":-95.474056},{"ID Main Table":8532,"ID Site Name":955,"Tree Planted Qty":"","Tree Species Breakdown":"","Tree Size":"15 gal.","Street Number":5521,"Street":"Gasmer Road","City":"Houston","State":"TX","Zip":77035,"lat":29.650997,"lng":-95.474056},{"ID Main Table":7745,"ID Site Name":955,"Tree Planted Qty":1,"Tree Species Breakdown":"","Tree Size":"15 gal.","Street Number":5521,"Street":"Gasmer Road","City":"Houston","State":"TX","Zip":77035,"lat":29.650997,"lng":-95.474056},{"ID Main Table":7769,"ID Site Name":955,"Tree Planted Qty":1,"Tree Species Breakdown":"","Tree Size":"30 gal.","Street Number":5521,"Street":"Gasmer Road","City":"Houston","State":"TX","Zip":77035,"lat":29.650997,"lng":-95.474056},{"ID Main Table":7772,"ID Site Name":955,"Tree Planted Qty":1,"Tree Species Breakdown":"","Tree Size":"15 gal.","Street Number":5521,"Street":"Gasmer Road","City":"Houston","State":"TX","Zip":77035,"lat":29.650997,"lng":-95.474056},{"ID Main Table":8533,"ID Site Name":955,"Tree Planted Qty":"","Tree Species Breakdown":"","Tree Size":"15 gal.","Street Number":5521,"Street":"Gasmer Road","City":"Houston","State":"TX","Zip":77035,"lat":29.650997,"lng":-95.474056},{"ID Main Table":8534,"ID Site Name":955,"Tree Planted Qty":"","Tree Species Breakdown":"","Tree Size":"15 gal.","Street Number":5512,"Street":"Gasmer Road","City":"Houston","State":"TX","Zip":77035,"lat":29.6509796,"lng":-95.4744702},{"ID Main Table":8535,"ID Site Name":955,"Tree Planted Qty":"","Tree Species Breakdown":"","Tree Size":"15 gal.","Street Number":5512,"Street":"Gasmer Road","City":"Houston","State":"TX","Zip":77035,"lat":29.6509796,"lng":-95.4744702},{"ID Main Table":8536,"ID Site Name":955,"Tree Planted Qty":"","Tree Species Breakdown":"","Tree Size":"15 gal.","Street Number":5512,"Street":"Gasmer Road","City":"Houston","State":"TX","Zip":77035,"lat":29.6509796,"lng":-95.4744702},{"ID Main Table":8349,"ID Site Name":955,"Tree Planted Qty":1,"Tree Species Breakdown":"","Tree Size":"15 gal.","Street Number":5521,"Street":"Gasmer Road","City":"Houston","State":"TX","Zip":77035,"lat":29.650997,"lng":-95.474056},{"ID Main Table":8064,"ID Site Name":955,"Tree Planted Qty":1,"Tree Species Breakdown":"","Tree Size":"15 gal.","Street Number":5521,"Street":"Gasmer Road","City":"Houston","State":"TX","Zip":77035,"lat":29.650997,"lng":-95.474056},{"ID Main Table":8052,"ID Site Name":955,"Tree Planted Qty":1,"Tree Species Breakdown":"","Tree Size":"15 gal.","Street Number":5521,"Street":"Gasmer Road","City":"Houston","State":"TX","Zip":77035,"lat":29.650997,"lng":-95.474056},{"ID Main Table":8053,"ID Site Name":955,"Tree Planted Qty":1,"Tree Species Breakdown":"","Tree Size":"15 gal.","Street Number":5521,"Street":"Gasmer Road","City":"Houston","State":"TX","Zip":77035,"lat":29.650997,"lng":-95.474056},{"ID Main Table":8054,"ID Site Name":955,"Tree Planted Qty":1,"Tree Species Breakdown":"","Tree Size":"15 gal.","Street Number":5521,"Street":"Gasmer Road","City":"Houston","State":"TX","Zip":77035,"lat":29.650997,"lng":-95.474056},{"ID Main Table":8024,"ID Site Name":955,"Tree Planted Qty":1,"Tree Species Breakdown":"","Tree Size":"15 gal.","Street Number":5521,"Street":"Gasmer Road","City":"Houston","State":"TX","Zip":77035,"lat":29.650997,"lng":-95.474056},{"ID Main Table":8537,"ID Site Name":955,"Tree Planted Qty":"","Tree Species Breakdown":"","Tree Size":"15 gal.","Street Number":5521,"Street":"Gasmer Road","City":"Houston","State":"TX","Zip":77035,"lat":29.650997,"lng":-95.474056},{"ID Main Table":8538,"ID Site Name":955,"Tree Planted Qty":"","Tree Species Breakdown":"","Tree Size":"15 gal.","Street Number":5512,"Street":"Gasmer Road","City":"Houston","State":"TX","Zip":77035,"lat":29.6509796,"lng":-95.4744702},{"ID Main Table":8539,"ID Site Name":955,"Tree Planted Qty":"","Tree Species Breakdown":"","Tree Size":"15 gal.","Street Number":5512,"Street":"Gasmer Road","City":"Houston","State":"TX","Zip":77035,"lat":29.6509796,"lng":-95.4744702},{"ID Main Table":8540,"ID Site Name":955,"Tree Planted Qty":"","Tree Species Breakdown":"","Tree Size":"15 gal.","Street Number":5521,"Street":"Gasmer Road","City":"Houston","State":"TX","Zip":77035,"lat":29.650997,"lng":-95.474056},{"ID Main Table":8541,"ID Site Name":955,"Tree Planted Qty":"","Tree Species Breakdown":"","Tree Size":"15 gal.","Street Number":5521,"Street":"Gasmer Road","City":"Houston","State":"TX","Zip":77035,"lat":29.650997,"lng":-95.474056},{"ID Main Table":8542,"ID Site Name":955,"Tree Planted Qty":"","Tree Species Breakdown":"","Tree Size":"15 gal.","Street Number":5521,"Street":"Gasmer Road","City":"Houston","State":"TX","Zip":77035,"lat":29.650997,"lng":-95.474056},{"ID Main Table":8543,"ID Site Name":955,"Tree Planted Qty":"","Tree Species Breakdown":"","Tree Size":"15 gal.","Street Number":5521,"Street":"Gasmer Road","City":"Houston","State":"TX","Zip":77035,"lat":29.650997,"lng":-95.474056},{"ID Main Table":8544,"ID Site Name":955,"Tree Planted Qty":"","Tree Species Breakdown":"","Tree Size":"15 gal.","Street Number":5521,"Street":"Gasmer Road","City":"Houston","State":"TX","Zip":77035,"lat":29.650997,"lng":-95.474056},{"ID Main Table":8545,"ID Site Name":955,"Tree Planted Qty":"","Tree Species Breakdown":"","Tree Size":"15 gal.","Street Number":5521,"Street":"Gasmer Road","City":"Houston","State":"TX","Zip":77035,"lat":29.650997,"lng":-95.474056},{"ID Main Table":8546,"ID Site Name":955,"Tree Planted Qty":"","Tree Species Breakdown":"","Tree Size":"15 gal.","Street Number":5521,"Street":"Gasmer Road","City":"Houston","State":"TX","Zip":77035,"lat":29.650997,"lng":-95.474056},{"ID Main Table":8547,"ID Site Name":955,"Tree Planted Qty":"","Tree Species Breakdown":"","Tree Size":"15 gal.","Street Number":5521,"Street":"Gasmer Road","City":"Houston","State":"TX","Zip":77035,"lat":29.650997,"lng":-95.474056},{"ID Main Table":8548,"ID Site Name":955,"Tree Planted Qty":"","Tree Species Breakdown":"","Tree Size":"15 gal.","Street Number":5521,"Street":"Gasmer Road","City":"Houston","State":"TX","Zip":77035,"lat":29.650997,"lng":-95.474056},{"ID Main Table":8549,"ID Site Name":955,"Tree Planted Qty":"","Tree Species Breakdown":"","Tree Size":"15 gal.","Street Number":5521,"Street":"Gasmer Road","City":"Houston","State":"TX","Zip":77035,"lat":29.650997,"lng":-95.474056},{"ID Main Table":8550,"ID Site Name":955,"Tree Planted Qty":"","Tree Species Breakdown":"","Tree Size":"15 gal.","Street Number":5521,"Street":"Gasmer Road","City":"Houston","State":"TX","Zip":77035,"lat":29.650997,"lng":-95.474056},{"ID Main Table":8551,"ID Site Name":955,"Tree Planted Qty":"","Tree Species Breakdown":"","Tree Size":"15 gal.","Street Number":5521,"Street":"Gasmer Road","City":"Houston","State":"TX","Zip":77035,"lat":29.650997,"lng":-95.474056},{"ID Main Table":8033,"ID Site Name":955,"Tree Planted Qty":1,"Tree Species Breakdown":"","Tree Size":"15 gal.","Street Number":5521,"Street":"Gasmer Road","City":"Houston","State":"TX","Zip":77035,"lat":29.650997,"lng":-95.474056},{"ID Main Table":8034,"ID Site Name":955,"Tree Planted Qty":1,"Tree Species Breakdown":"","Tree Size":"15 gal.","Street Number":5521,"Street":"Gasmer Road","City":"Houston","State":"TX","Zip":77035,"lat":29.650997,"lng":-95.474056},{"ID Main Table":8035,"ID Site Name":955,"Tree Planted Qty":1,"Tree Species Breakdown":"","Tree Size":"15 gal.","Street Number":5521,"Street":"Gasmer Road","City":"Houston","State":"TX","Zip":77035,"lat":29.650997,"lng":-95.474056},{"ID Main Table":8027,"ID Site Name":955,"Tree Planted Qty":1,"Tree Species Breakdown":"","Tree Size":"15 gal.","Street Number":5521,"Street":"Gasmer Road","City":"Houston","State":"TX","Zip":77035,"lat":29.650997,"lng":-95.474056},{"ID Main Table":8025,"ID Site Name":955,"Tree Planted Qty":1,"Tree Species Breakdown":"","Tree Size":"30 gal.","Street Number":5521,"Street":"Gasmer Road","City":"Houston","State":"TX","Zip":77035,"lat":29.650997,"lng":-95.474056},{"ID Main Table":8019,"ID Site Name":955,"Tree Planted Qty":1,"Tree Species Breakdown":"","Tree Size":"15 gal.","Street Number":5521,"Street":"Gasmer Road","City":"Houston","State":"TX","Zip":77035,"lat":29.650997,"lng":-95.474056},{"ID Main Table":8022,"ID Site Name":955,"Tree Planted Qty":1,"Tree Species Breakdown":"","Tree Size":"15 gal.","Street Number":5521,"Street":"Gasmer Road","City":"Houston","State":"TX","Zip":77035,"lat":29.650997,"lng":-95.474056},{"ID Main Table":8023,"ID Site Name":955,"Tree Planted Qty":1,"Tree Species Breakdown":"","Tree Size":"15 gal.","Street Number":5521,"Street":"Gasmer Road","City":"Houston","State":"TX","Zip":77035,"lat":29.650997,"lng":-95.474056},{"ID Main Table":8020,"ID Site Name":955,"Tree Planted Qty":1,"Tree Species Breakdown":"","Tree Size":"15 gal.","Street Number":5521,"Street":"Gasmer Road","City":"Houston","State":"TX","Zip":77035,"lat":29.650997,"lng":-95.474056},{"ID Main Table":7897,"ID Site Name":955,"Tree Planted Qty":1,"Tree Species Breakdown":"","Tree Size":"15 gal.","Street Number":5521,"Street":"Gasmer Road","City":"Houston","State":"TX","Zip":77035,"lat":29.650997,"lng":-95.474056},{"ID Main Table":7791,"ID Site Name":955,"Tree Planted Qty":1,"Tree Species Breakdown":"","Tree Size":"15 gal.","Street Number":5521,"Street":"Gasmer Road","City":"Houston","State":"TX","Zip":77035,"lat":29.650997,"lng":-95.474056},{"ID Main Table":7794,"ID Site Name":955,"Tree Planted Qty":1,"Tree Species Breakdown":"","Tree Size":"15 gal.","Street Number":5521,"Street":"Gasmer Road","City":"Houston","State":"TX","Zip":77035,"lat":29.650997,"lng":-95.474056},{"ID Main Table":7793,"ID Site Name":955,"Tree Planted Qty":1,"Tree Species Breakdown":"","Tree Size":"15 gal.","Street Number":5521,"Street":"Gasmer Road","City":"Houston","State":"TX","Zip":77035,"lat":29.650997,"lng":-95.474056},{"ID Main Table":7941,"ID Site Name":955,"Tree Planted Qty":1,"Tree Species Breakdown":"","Tree Size":"15 gal.","Street Number":5525,"Street":"Gasmer Road","City":"Houston","State":"TX","Zip":77035,"lat":29.650249,"lng":-95.47658299999999},{"ID Main Table":8552,"ID Site Name":955,"Tree Planted Qty":"","Tree Species Breakdown":"","Tree Size":"15 gal.","Street Number":5512,"Street":"Gasmer Road","City":"Houston","State":"TX","Zip":77035,"lat":29.6509796,"lng":-95.4744702},{"ID Main Table":8553,"ID Site Name":955,"Tree Planted Qty":"","Tree Species Breakdown":"","Tree Size":"15 gal.","Street Number":5512,"Street":"Gasmer Road","City":"Houston","State":"TX","Zip":77035,"lat":29.6509796,"lng":-95.4744702},{"ID Main Table":8554,"ID Site Name":955,"Tree Planted Qty":"","Tree Species Breakdown":"","Tree Size":"15 gal.","Street Number":5512,"Street":"Gasmer Road","City":"Houston","State":"TX","Zip":77035,"lat":29.6509796,"lng":-95.4744702},{"ID Main Table":8555,"ID Site Name":955,"Tree Planted Qty":"","Tree Species Breakdown":"","Tree Size":"15 gal.","Street Number":5512,"Street":"Gasmer Road","City":"Houston","State":"TX","Zip":77035,"lat":29.6509796,"lng":-95.4744702},{"ID Main Table":8556,"ID Site Name":955,"Tree Planted Qty":"","Tree Species Breakdown":"","Tree Size":"15 gal.","Street Number":5512,"Street":"Gasmer Road","City":"Houston","State":"TX","Zip":77035,"lat":29.6509796,"lng":-95.4744702},{"ID Main Table":8557,"ID Site Name":955,"Tree Planted Qty":"","Tree Species Breakdown":"","Tree Size":"15 gal.","Street Number":5512,"Street":"Gasmer Road","City":"Houston","State":"TX","Zip":77035,"lat":29.6509796,"lng":-95.4744702},{"ID Main Table":8558,"ID Site Name":955,"Tree Planted Qty":"","Tree Species Breakdown":"","Tree Size":"15 gal.","Street Number":5512,"Street":"Gasmer Road","City":"Houston","State":"TX","Zip":77035,"lat":29.6509796,"lng":-95.4744702},{"ID Main Table":8559,"ID Site Name":955,"Tree Planted Qty":"","Tree Species Breakdown":"","Tree Size":"15 gal.","Street Number":5512,"Street":"Gasmer Road","City":"Houston","State":"TX","Zip":77035,"lat":29.6509796,"lng":-95.4744702},{"ID Main Table":8560,"ID Site Name":955,"Tree Planted Qty":"","Tree Species Breakdown":"","Tree Size":"15 gal.","Street Number":5512,"Street":"Gasmer Road","City":"Houston","State":"TX","Zip":77035,"lat":29.6509796,"lng":-95.4744702},{"ID Main Table":8018,"ID Site Name":955,"Tree Planted Qty":1,"Tree Species Breakdown":"","Tree Size":"30 gal.","Street Number":5521,"Street":"Gasmer Road","City":"Houston","State":"TX","Zip":77035,"lat":29.650997,"lng":-95.474056},{"ID Main Table":8017,"ID Site Name":955,"Tree Planted Qty":1,"Tree Species Breakdown":"","Tree Size":"15 gal.","Street Number":5521,"Street":"Gasmer Road","City":"Houston","State":"TX","Zip":77035,"lat":29.650997,"lng":-95.474056},{"ID Main Table":8561,"ID Site Name":955,"Tree Planted Qty":"","Tree Species Breakdown":"","Tree Size":"15 gal.","Street Number":5512,"Street":"Gasmer Road","City":"Houston","State":"TX","Zip":77035,"lat":29.6509796,"lng":-95.4744702},{"ID Main Table":8605,"ID Site Name":1165,"Tree Planted Qty":505,"Tree Species Breakdown":"Mixed species ( see attached full project specie list)","Tree Size":"5 gal.","Street Number":28515,"Street":"Old Washington,","City":"Hockley","State":"TX","Zip":77447,"lat":30.0322858,"lng":-95.86185119999999},{"ID Main Table":8475,"ID Site Name":457,"Tree Planted Qty":32,"Tree Species Breakdown":"10 Cedar Elm; 10 Shumard Oak; 12 Over Cup","Tree Size":"15 gal.","Street Number":1800,"Street":"McCarty","City":"Houston","State":"TX","Zip":77029,"lat":29.7600852,"lng":-95.28341429999999},{"ID Main Table":8464,"ID Site Name":1064,"Tree Planted Qty":30,"Tree Species Breakdown":"8 American Elm and 6 Loblolly Pine from TFH La Porte Farm; 2 Swamp Chestnut Oak; 3 Monterrye Oak; 1 Chinquapin Oak; 5 Bur Oak; 5 Over Cup; all from Centerpoint farm","Tree Size":"15 gal.","Street Number":7020,"Street":"Shadyvilla Lane","City":"Houston","State":"TX","Zip":77055,"lat":29.7962031,"lng":-95.47211569999999},{"ID Main Table":8465,"ID Site Name":1145,"Tree Planted Qty":264,"Tree Species Breakdown":"165 Desert Willow; 37 Bottle Brush; 62 Mexican Buckeye","Tree Size":"5 gal.","Street Number":"","Street":"","City":"Galveston","State":"TX","Zip":77550,"lat":29.4345626,"lng":-94.68120859999999},{"ID Main Table":8498,"ID Site Name":954,"Tree Planted Qty":200,"Tree Species Breakdown":"","Tree Size":"5 gal.","Street Number":9415,"Street":"Cypresswood Drive","City":"Spring","State":"TX","Zip":77379,"lat":29.993813,"lng":-95.5436331},{"ID Main Table":8466,"ID Site Name":786,"Tree Planted Qty":3,"Tree Species Breakdown":"1-10 gal Moro Blood Orange and 1-7 gal BC1 Satsuma from Treesearch; 1-5 gal Fig from Chevron","Tree Size":"5 gal., 10 gal., 7 gal.","Street Number":6000,"Street":"Chimney Rock","City":"Houston","State":"TX","Zip":77081,"lat":29.7157425,"lng":-95.4769523},{"ID Main Table":8463,"ID Site Name":21,"Tree Planted Qty":27,"Tree Species Breakdown":"Live Oak from Riley Fuzzel; 6 Shumard Oak from Home Depot","Tree Size":"15 gal.","Street Number":"","Street":"Airport (West) Boulevard","City":"Houston","State":"TX","Zip":77045,"lat":29.6418732,"lng":-95.4428397},{"ID Main Table":8606,"ID Site Name":1166,"Tree Planted Qty":20,"Tree Species Breakdown":"Mixed species ( see attached full project specie list)","Tree Size":"5 gal.","Street Number":15200,"Street":"Memorial Drive","City":"Houston","State":"TX","Zip":77072,"lat":29.7814459,"lng":-95.62213000000001},{"ID Main Table":8496,"ID Site Name":230,"Tree Planted Qty":112,"Tree Species Breakdown":"5 gal.-6Bur Oak; 12East Palatka  Holly; 15 gal.-12 Bald Cypress; 12Southern Magnolia; 6Desert Willow; 12Loblolly Pine; 6Red Maple; 8Mex. Sycamore; 6Cedar Elm; 6Mex. White Oak; 6Shumard Oak; 6Nuttall Oak; 6White Oak; 2Wax Myrtle; 6Parsley Hawthorne","Tree Size":"5 gal., 15 gal.","Street Number":6001,"Street":"Fannin Street","City":"Houston","State":"TX","Zip":77030,"lat":29.7183503,"lng":-95.3908764},{"ID Main Table":8495,"ID Site Name":230,"Tree Planted Qty":30,"Tree Species Breakdown":"all 5 gal.from Chevron -12 Swamp Chestnut, 6 Sugar Berry, (all from Chevron); 6 Mex Plum; 6-15 gal Chinquapin Oak from Centerpoint","Tree Size":"5 gal., 15 gal.","Street Number":6001,"Street":"Fannin Street","City":"Houston","State":"TX","Zip":77030,"lat":29.7183503,"lng":-95.3908764},{"ID Main Table":8608,"ID Site Name":1167,"Tree Planted Qty":211,"Tree Species Breakdown":"Mixed species ( see attached full project specie list)","Tree Size":"5 gal.","Street Number":16756,"Street":"Westheimer Parkway","City":"Houston","State":"TX","Zip":77082,"lat":29.7196437,"lng":-95.686953},{"ID Main Table":8492,"ID Site Name":1149,"Tree Planted Qty":5,"Tree Species Breakdown":"1-30 gal. Live Oak from Treesource ; 3-15 gal. from Centerpoint","Tree Size":"15 gal., 30 gal.","Street Number":18300,"Street":"Upper Bay Road","City":"Houston","State":"TX","Zip":77058,"lat":29.5456983,"lng":-95.0884595},{"ID Main Table":8507,"ID Site Name":935,"Tree Planted Qty":114,"Tree Species Breakdown":"15 gall all from Centerpoint-12 Bur oak; 10 Cedar Elm; 21 Loblolly Pine; 5 Magnolia; 66-5 gal White oak from Treesearch","Tree Size":"5 gal., 15 gal.","Street Number":1520,"Street":"Candelight Lane","City":"Houston","State":"TX","Zip":77018,"lat":29.8358291,"lng":-95.4376522},{"ID Main Table":8597,"ID Site Name":1163,"Tree Planted Qty":56,"Tree Species Breakdown":"22 Bald Cypress; 2 Cottonwood; 2 Mex. White oak; 7 Sawtooth Oak; 8 Bur Oak; 2 longleaf Pine; 13 Nuttall Oak;","Tree Size":"5 gal.","Street Number":4318,"Street":"FM 1985","City":"Anahuac","State":"TX","Zip":77514,"lat":29.6680194,"lng":-94.5062801},{"ID Main Table":8494,"ID Site Name":50,"Tree Planted Qty":345,"Tree Species Breakdown":"65 Lobloly Pine; 45 Shumar Oak; 25 Nuttall Oak; 20 Bur Oak; 10 Chinquapin Oak; 40 Red Oak; 45 Cherrybark Oak; 20 Red Maple; 25 Live Oak; 50 Bald Cypress","Tree Size":"5 gal.","Street Number":"","Street":"","City":"Houston","State":"TX","Zip":"","lat":29.7604267,"lng":-95.3698028},{"ID Main Table":8503,"ID Site Name":843,"Tree Planted Qty":10,"Tree Species Breakdown":"5 Burr Oak; 5 Shumard Oak","Tree Size":"15 gal.","Street Number":5700,"Street":"Effingham Drive","City":"Houston","State":"TX","Zip":77035,"lat":29.6463283,"lng":-95.4862386},{"ID Main Table":8493,"ID Site Name":692,"Tree Planted Qty":"","Tree Species Breakdown":"","Tree Size":"30 gal.","Street Number":1616,"Street":"Kipling Street","City":"Houton","State":"TX","Zip":77006,"lat":29.740632,"lng":-95.40021899999999},{"ID Main Table":8504,"ID Site Name":1072,"Tree Planted Qty":53,"Tree Species Breakdown":"","Tree Size":"15 gal.","Street Number":5504,"Street":"Court Road","City":"Houston","State":"TX","Zip":77053,"lat":29.59065189999999,"lng":-95.4696736},{"ID Main Table":8609,"ID Site Name":1168,"Tree Planted Qty":469,"Tree Species Breakdown":"Mixed species ( see attached full project specie list)","Tree Size":"5 gal.","Street Number":"","Street":"Morton Ranch Road","City":"Katy","State":"TX","Zip":77449,"lat":29.8171527,"lng":-95.7715745},{"ID Main Table":8508,"ID Site Name":213,"Tree Planted Qty":1,"Tree Species Breakdown":"Green Giant Magnolia","Tree Size":"15 gal.","Street Number":139,"Street":"20th East Street","City":"Houston","State":"TX","Zip":77008,"lat":29.8051657,"lng":-95.39798739999999},{"ID Main Table":8506,"ID Site Name":1152,"Tree Planted Qty":1,"Tree Species Breakdown":"","Tree Size":"30 gal.","Street Number":14815,"Street":"Lee Road","City":"Houston","State":"TX","Zip":77032,"lat":29.9339037,"lng":-95.304398},{"ID Main Table":8505,"ID Site Name":1151,"Tree Planted Qty":4,"Tree Species Breakdown":"1 -15 gal Little Gen Magnolia; 3 -5 gal. Siren Red Crape Myrtle","Tree Size":"5 gal., 15 gal.","Street Number":5406,"Street":"Leopold Drive","City":"Houston","State":"TX","Zip":77021,"lat":29.709942,"lng":-95.358109},{"ID Main Table":8585,"ID Site Name":393,"Tree Planted Qty":20,"Tree Species Breakdown":"Tuscarora Crape Myrtle","Tree Size":"5 gal.","Street Number":1305,"Street":"Benson","City":"Houston","State":"TX","Zip":77020,"lat":29.7740064,"lng":-95.3299672},{"ID Main Table":8566,"ID Site Name":1155,"Tree Planted Qty":6,"Tree Species Breakdown":"2 Green Giant Magnolia from TFH la Porte Farm; 2 Live Oak and 2 Baldcypress from Just Trees","Tree Size":"15 gal.","Street Number":3602,"Street":"Parkwood Drive","City":"Houston","State":"TX","Zip":77021,"lat":29.707341,"lng":-95.36232},{"ID Main Table":8586,"ID Site Name":1162,"Tree Planted Qty":6,"Tree Species Breakdown":"5 Live Oak from Just Trees; 1 Crape Myrtle from TFH La Porte Farm","Tree Size":"15 gal.","Street Number":935,"Street":"22nd (West) Street","City":"Houston","State":"TX","Zip":77008,"lat":29.806047,"lng":-95.416301},{"ID Main Table":8583,"ID Site Name":1,"Tree Planted Qty":40,"Tree Species Breakdown":"10 Live Oak form  Just Trees; 10 Jap. Black Pine, 5 Mex. Sycamore, and 5 Chickasaw Plum from Treesearch; 5 cedar elm from Centerpoint; 5 Green Giant Magnolia from TFH La Porte Farm","Tree Size":"15 gal., 7 gal.","Street Number":"","Street":"Braeswood","City":"Houston","State":"TX","Zip":77074,"lat":29.679268,"lng":-95.50107299999999},{"ID Main Table":8509,"ID Site Name":1153,"Tree Planted Qty":4,"Tree Species Breakdown":"1-15 gal Live Oak (Just Trees); 3-30 gal. Country Red Crape Myrtle from Alvin Tree Farm","Tree Size":"15 gal., 30 gal.","Street Number":10335,"Street":"Sageburrow Drive","City":"Houston","State":"TX","Zip":77089,"lat":29.59712,"lng":-95.238388},{"ID Main Table":8510,"ID Site Name":1017,"Tree Planted Qty":10,"Tree Species Breakdown":"","Tree Size":"15 gal.","Street Number":"","Street":"Southmore Boulevard","City":"Houston","State":"TX","Zip":77004,"lat":29.7187571,"lng":-95.3711069},{"ID Main Table":8511,"ID Site Name":14,"Tree Planted Qty":48,"Tree Species Breakdown":"24 Crape Myrtle; 5 Bottle Brush; all from CenterPoint; 19 Live Oak From Just Trees","Tree Size":"15 gal.","Street Number":"","Street":"Bellfore (West) Avenue","City":"Houston","State":"TX","Zip":77025,"lat":29.8101008,"lng":-95.2687224},{"ID Main Table":8584,"ID Site Name":96,"Tree Planted Qty":101,"Tree Species Breakdown":"","Tree Size":"15 gal.","Street Number":8400,"Street":"Dairy View Lane","City":"Houston","State":"TX","Zip":77072,"lat":29.6865352,"lng":-95.6003935},{"ID Main Table":8610,"ID Site Name":1169,"Tree Planted Qty":190,"Tree Species Breakdown":"Mixed species ( see attached full project specie list)","Tree Size":"5 gal.","Street Number":3418,"Street":"Mason (North) Road","City":"Katy","State":"TX","Zip":77449,"lat":29.8235575,"lng":-95.75333649999999},{"ID Main Table":8567,"ID Site Name":132,"Tree Planted Qty":50,"Tree Species Breakdown":"","Tree Size":"15 gal.","Street Number":"","Street":"Chimney Rock","City":"Houston","State":"TX","Zip":77489,"lat":29.5977097,"lng":-95.482029},{"ID Main Table":8611,"ID Site Name":1170,"Tree Planted Qty":45,"Tree Species Breakdown":"Mixed species ( see attached full project specie list)","Tree Size":"5 gal.","Street Number":9114,"Street":"Katy-Hockley Road","City":"Katy","State":"TX","Zip":77493,"lat":29.9014011,"lng":-95.81650739999999},{"ID Main Table":8579,"ID Site Name":238,"Tree Planted Qty":72,"Tree Species Breakdown":"","Tree Size":"15 gal.","Street Number":"","Street":"Hillcroft Avenue","City":"Houston","State":"TX","Zip":77085,"lat":29.6246261,"lng":-95.4950894},{"ID Main Table":8580,"ID Site Name":1159,"Tree Planted Qty":37,"Tree Species Breakdown":"","Tree Size":"15 gal.","Street Number":"","Street":"West Orem Drive","City":"Houston","State":"TX","Zip":77085,"lat":29.6269878,"lng":-95.4863531},{"ID Main Table":8612,"ID Site Name":1171,"Tree Planted Qty":19,"Tree Species Breakdown":"Mixed species ( see attached full project specie list)","Tree Size":"5 gal.","Street Number":1600,"Street":"Baler Road","City":"Houston","State":"TX","Zip":77094,"lat":29.7706038,"lng":-95.69839789999999},{"ID Main Table":8526,"ID Site Name":1154,"Tree Planted Qty":195,"Tree Species Breakdown":"","Tree Size":"3 gal.","Street Number":"","Street":"Forest Lake Drive","City":"Seabrook","State":"TX","Zip":77856,"lat":29.5726628,"lng":-95.0625577},{"ID Main Table":8525,"ID Site Name":934,"Tree Planted Qty":195,"Tree Species Breakdown":"","Tree Size":"3 gal.","Street Number":451,"Street":"Kirby Drive","City":"Houston","State":"TX","Zip":77856,"lat":29.75954999999999,"lng":-95.408749},{"ID Main Table":8568,"ID Site Name":1156,"Tree Planted Qty":191,"Tree Species Breakdown":"20 Ironwood(Hornbeam); 82 Longleaf Pine; 11 Bur Oak; 20 Pecan; 6 Swamp White Oak; 14 Wild Chickasaw Plum; 14 May Haw; 24 Sawtooth Oak","Tree Size":"3 gal.","Street Number":"","Street":"","City":"","State":"TX","Zip":77331,"lat":30.6548417,"lng":-95.18492189999999},{"ID Main Table":8569,"ID Site Name":1157,"Tree Planted Qty":30,"Tree Species Breakdown":"6 Cedar Elm from Rancho Encino; 4 Loblolly Pine form Center Point; 20 Live Oak","Tree Size":"15 gal.","Street Number":4321,"Street":"Westfield Village Drive","City":"Katy","State":"TX","Zip":77449,"lat":29.8376903,"lng":-95.7302662},{"ID Main Table":8570,"ID Site Name":1158,"Tree Planted Qty":2,"Tree Species Breakdown":"","Tree Size":"15 gal.","Street Number":1200,"Street":"Longledge Drive","City":"Taylor Lake Village","State":"TX","Zip":77586,"lat":29.5837584,"lng":-95.05852469999999},{"ID Main Table":8576,"ID Site Name":929,"Tree Planted Qty":2,"Tree Species Breakdown":"Little Gem Magnolia","Tree Size":"15 gal.","Street Number":2419,"Street":"Moss Hill Drive","City":"Houston","State":"TX","Zip":77080,"lat":29.814835,"lng":-95.53943},{"ID Main Table":8575,"ID Site Name":100,"Tree Planted Qty":3,"Tree Species Breakdown":"","Tree Size":"30 gal.","Street Number":"","Street":"Bellefontaine","City":"Houston","State":"TX","Zip":77030,"lat":29.7036835,"lng":-95.4134534},{"ID Main Table":8571,"ID Site Name":230,"Tree Planted Qty":99,"Tree Species Breakdown":"11 Bald Cypress from Just trees, 30 Red Oak, 3 Cedar Oak, 10 Parsley Hawthorne, 20 Cedar Elm, 10 Loblolly Pine, and 15 desert Willow from CenterPoint","Tree Size":"15 gal.","Street Number":6001,"Street":"Fannin Street","City":"Houston","State":"TX","Zip":77030,"lat":29.7183503,"lng":-95.3908764},{"ID Main Table":8574,"ID Site Name":300,"Tree Planted Qty":1,"Tree Species Breakdown":"","Tree Size":"15 gal.","Street Number":8814,"Street":"South Rice Avenue","City":"Houston","State":"TX","Zip":77096,"lat":29.683082,"lng":-95.46913599999999},{"ID Main Table":8578,"ID Site Name":240,"Tree Planted Qty":99,"Tree Species Breakdown":"","Tree Size":"15 gal.","Street Number":"","Street":"Hiram Cleark Road","City":"Houston","State":"TX","Zip":77045,"lat":29.6333381,"lng":-95.4463177},{"ID Main Table":8577,"ID Site Name":1159,"Tree Planted Qty":272,"Tree Species Breakdown":"145 Live Oak From Just Trees , 127 'Natchez' Crape Myrtle From Chevron","Tree Size":"5 gal., 15 gal.","Street Number":"","Street":"West Orem Drive","City":"Houston","State":"TX","Zip":77045,"lat":29.6273148,"lng":-95.45524549999999},{"ID Main Table":8607,"ID Site Name":1167,"Tree Planted Qty":40,"Tree Species Breakdown":"Mixed species ( see attached full project specie list)","Tree Size":"5 gal.","Street Number":16756,"Street":"Westheimer Parkway","City":"Houston","State":"TX","Zip":77082,"lat":29.7196437,"lng":-95.686953},{"ID Main Table":8573,"ID Site Name":453,"Tree Planted Qty":25,"Tree Species Breakdown":"Texas Persimmons","Tree Size":"45 gal.","Street Number":3600,"Street":"Canada","City":"La Porte","State":"TX","Zip":77571,"lat":29.6560989,"lng":-95.09919889999999},{"ID Main Table":8588,"ID Site Name":50,"Tree Planted Qty":5,"Tree Species Breakdown":"3- 30 gal Japanese Blueberry; 2-95 Gal. Blanchard Magnolia","Tree Size":"30 gal., 100 gal.","Street Number":"","Street":"Glendawer Court","City":"Houston","State":"TX","Zip":77019,"lat":30.0464962,"lng":-95.3558047},{"ID Main Table":8581,"ID Site Name":1160,"Tree Planted Qty":160,"Tree Species Breakdown":"24 Burr Oak; 40 Swamp Chesnut; 8 Swamp White Oak; 16 Sawtooth Oak; 16 Easter Redbud; 10 Nuttall Oak; 6 Over Cup; 16 Chinquapin Oak; 8 white oak; 8 Long Leaf; 8 Live Oak","Tree Size":"5 gal.","Street Number":10390,"Street":"Silver Springs Road","City":"Conroe","State":"TX","Zip":77303,"lat":30.3909153,"lng":-95.4678836},{"ID Main Table":8587,"ID Site Name":918,"Tree Planted Qty":121,"Tree Species Breakdown":"93 Live Oak from Just Trees ; 28 Bald cypress from Rancho Encino","Tree Size":"15 gal.","Street Number":"","Street":"Post Oak ( South)","City":"Houston","State":"TX","Zip":77053,"lat":29.5959137,"lng":-95.4669345},{"ID Main Table":8572,"ID Site Name":14,"Tree Planted Qty":55,"Tree Species Breakdown":"Baldcypress, Burr Oak, and Cedar Elm all 30 gal trees From Houston Park And Recreation Department; 5-5 gal Mex. White Oak from Centerpoint","Tree Size":"5 gal., 30 gal.","Street Number":3000,"Street":"Bellfort Avenue","City":"Houston","State":"TX","Zip":77051,"lat":29.6680033,"lng":-95.3815733},{"ID Main Table":8582,"ID Site Name":1161,"Tree Planted Qty":28,"Tree Species Breakdown":"3 Live Oak; 5 Balc Cypress; 11 Mexican Sycamore; 9 Nuttall","Tree Size":"15 gal.","Street Number":6701,"Street":"Roxbury Road","City":"Houston","State":"TX","Zip":77087,"lat":29.6733529,"lng":-95.3087584},{"ID Main Table":8613,"ID Site Name":136,"Tree Planted Qty":36,"Tree Species Breakdown":"Mixed species ( see attached full project specie list)","Tree Size":"5 gal.","Street Number":"","Street":"Clay Road","City":"Houston","State":"TX","Zip":77084,"lat":29.8359848,"lng":-95.63964},{"ID Main Table":8629,"ID Site Name":263,"Tree Planted Qty":24,"Tree Species Breakdown":"12 Bald Cypress from Rancho Encino; 1 Live Oak from Bradshaws; 3 Lobloly Pine and 8 Crape Myrtle from Centerpoint","Tree Size":"15 gal.","Street Number":8921,"Street":"Page Wood Lane","City":"Houston","State":"TX","Zip":77063,"lat":29.7251123,"lng":-95.52137119999999},{"ID Main Table":8589,"ID Site Name":238,"Tree Planted Qty":25,"Tree Species Breakdown":"4 Rancho Encino; Circle D Nursery","Tree Size":"15 gal.","Street Number":"","Street":"Hillcroft","City":"Houston","State":"TX","Zip":77085,"lat":29.6246261,"lng":-95.4950894},{"ID Main Table":8590,"ID Site Name":238,"Tree Planted Qty":52,"Tree Species Breakdown":"18-15 gal Live Oak from Riley Fuzzel; 3-30 gal Live oak and 1-15 gal Live Oak from TFH La Porte; 30- 15 gal Bald Cypress  from Rancho Encino","Tree Size":"15 gal., 30 gal.","Street Number":14464,"Street":"Hillcroft","City":"Houston","State":"TX","Zip":77085,"lat":29.61666619999999,"lng":-95.49335339999999},{"ID Main Table":8614,"ID Site Name":720,"Tree Planted Qty":133,"Tree Species Breakdown":"Mixed species ( see attached full project specie list)","Tree Size":"5 gal.","Street Number":"","Street":"Eldridge Parkway","City":"Cypress","State":"TX","Zip":77065,"lat":29.9343186,"lng":-95.6069969},{"ID Main Table":8604,"ID Site Name":1164,"Tree Planted Qty":24,"Tree Species Breakdown":"7-45 gal  Loquat from Treesearch; 10-45 gal. Texas Olive and  17- 45 gal. Crape Myrtle from Alvin Tree Farm`","Tree Size":"45 gal.","Street Number":"","Street":"Spencer Highway","City":"La Porte","State":"TX","Zip":77571,"lat":29.6649909,"lng":-95.0392557},{"ID Main Table":8592,"ID Site Name":1159,"Tree Planted Qty":101,"Tree Species Breakdown":"56 Montezuma Cypress from Rnacho Encino; 45 Crape Myrtle from Centerpoint","Tree Size":"15 gal.","Street Number":"","Street":"West Orem Drive","City":"Houston","State":"TX","Zip":77085,"lat":29.6269878,"lng":-95.4863531},{"ID Main Table":8591,"ID Site Name":240,"Tree Planted Qty":23,"Tree Species Breakdown":"","Tree Size":"15 gal.","Street Number":"","Street":"Riram Clarke Road","City":"Houston","State":"TX","Zip":77045,"lat":29.6333381,"lng":-95.4463177},{"ID Main Table":8631,"ID Site Name":1177,"Tree Planted Qty":1,"Tree Species Breakdown":"","Tree Size":"45 gal.","Street Number":2902,"Street":"Jensen Drive","City":"Houston","State":"TX","Zip":77026,"lat":29.78797369999999,"lng":-95.3416529},{"ID Main Table":8593,"ID Site Name":1112,"Tree Planted Qty":32,"Tree Species Breakdown":"4-45 gal Burr oak; 12-45 gal. Bald Cypress; 2-30 gal. Winged Elm; 6-30 gal. Sugar Berry; 4-30 gal. Loblolly Pine; 4-30 gal. Shumard Oak","Tree Size":"30 gal., 45 gal.","Street Number":16511,"Street":"Diana Lane","City":"Houston","State":"TX","Zip":77062,"lat":29.56027989999999,"lng":-95.12085479999999},{"ID Main Table":8596,"ID Site Name":1064,"Tree Planted Qty":5,"Tree Species Breakdown":"2 Meyer Lemon; 2 Valencia Orange, 1 - 7 gal Fig","Tree Size":"5 gal., 7 gal.","Street Number":7020,"Street":"Shady Villa Lane","City":"Houston","State":"TX","Zip":77055,"lat":29.7956847,"lng":-95.4800592},{"ID Main Table":8595,"ID Site Name":626,"Tree Planted Qty":10,"Tree Species Breakdown":"","Tree Size":"15 gal.","Street Number":12425,"Street":"Woodforest Boulveard","City":"Houston","State":"TX","Zip":77013,"lat":29.7877505,"lng":-95.21450039999999},{"ID Main Table":8594,"ID Site Name":626,"Tree Planted Qty":35,"Tree Species Breakdown":"1- Sycamore, 6 Bottlebrush, 6 Crape Myrtle, all from CenterPoint; 22 Live oak from Estrada's Garden","Tree Size":"15 gal.","Street Number":12425,"Street":"Woodforest Boulveard","City":"Houston","State":"TX","Zip":77013,"lat":29.7877505,"lng":-95.21450039999999},{"ID Main Table":8628,"ID Site Name":1176,"Tree Planted Qty":422,"Tree Species Breakdown":"55 Wax Myrtle; 52 Crape Myrtle; 59 Shumard Oak; 50 Live Oak; 36 Water Oak; 50 Water Hickory; 50 Sawtooth Oak; 65 Swamp Chesnut Oak; 2 East Palaka Holly","Tree Size":"5 gal.","Street Number":"","Street":"","City":"Conroe","State":"TX","Zip":77301,"lat":30.3120301,"lng":-95.42537569999999},{"ID Main Table":8599,"ID Site Name":500,"Tree Planted Qty":2041,"Tree Species Breakdown":"","Tree Size":"","Street Number":"","Street":"","City":"Houston","State":"TX","Zip":"","lat":29.7604267,"lng":-95.3698028},{"ID Main Table":8632,"ID Site Name":1178,"Tree Planted Qty":1,"Tree Species Breakdown":"","Tree Size":"15 gal.","Street Number":7631,"Street":"Erath Street","City":"Houston","State":"TX","Zip":77023,"lat":29.721387,"lng":-95.290752},{"ID Main Table":8624,"ID Site Name":1174,"Tree Planted Qty":201,"Tree Species Breakdown":"68 wax Myrtle; 10 Bald Cypress; 10 Sugar Berry; 20 Paw Paw; 20 Eastern Redbud; 10 Over Cup Oak; 10 White Oak; 21 Iron Wood; 5 East palatka Holly; 20 Mayhaw; 7 Magnolia","Tree Size":"5 gal.","Street Number":440,"Street":"Wilchester Boulevard","City":"Houston","State":"TX","Zip":77079,"lat":29.770778,"lng":-95.568202},{"ID Main Table":8633,"ID Site Name":504,"Tree Planted Qty":35,"Tree Species Breakdown":"17 Live Oak from Estrada's Garden; 3 Cedar Elm rom Rancho Encino; 15 Wax Myrtle from Bradshaw's Nursery","Tree Size":"15 gal.","Street Number":9855,"Street":"Pagewood Lane","City":"Houston","State":"TX","Zip":77042,"lat":29.7248247,"lng":-95.5442289},{"ID Main Table":8635,"ID Site Name":21,"Tree Planted Qty":42,"Tree Species Breakdown":"","Tree Size":"15 gal.","Street Number":"","Street":"Air Port (West) Boulevard","City":"Houston","State":"TX","Zip":77031,"lat":29.6410764,"lng":-95.5547167},{"ID Main Table":8634,"ID Site Name":1179,"Tree Planted Qty":72,"Tree Species Breakdown":"","Tree Size":"15 gal.","Street Number":"","Street":"Holmes Road","City":"Houston","State":"TX","Zip":77045,"lat":29.6632428,"lng":-95.4209614},{"ID Main Table":8636,"ID Site Name":848,"Tree Planted Qty":23,"Tree Species Breakdown":"","Tree Size":"","Street Number":"","Street":"","City":"","State":"TX","Zip":"","lat":31.9685988,"lng":-99.9018131},{"ID Main Table":8637,"ID Site Name":1180,"Tree Planted Qty":7,"Tree Species Breakdown":"","Tree Size":"15 gal.","Street Number":"","Street":"Gessner (South)","City":"Houston","State":"TX","Zip":77071,"lat":29.6568567,"lng":-95.5279474},{"ID Main Table":8627,"ID Site Name":1175,"Tree Planted Qty":15,"Tree Species Breakdown":"2 Shumard Oak; 2 chinquapin Oak; 4 River Birch; 7 Loblolly Pine","Tree Size":"15 gal.","Street Number":"","Street":"Pineloch Drive","City":"Houston","State":"TX","Zip":77062,"lat":29.5794021,"lng":-95.1366098},{"ID Main Table":8600,"ID Site Name":301,"Tree Planted Qty":21,"Tree Species Breakdown":"5 Chinquapin Oak, 2 Pecan, and 3 White Oak all from Bownds; 5 Live Oak from Estrada's Garden Center; 3 Texas Red Bud and 3 Mexican Plum from Bradshau's Nursery","Tree Size":"15 gal.","Street Number":800,"Street":"Roxella","City":"Houston","State":"TX","Zip":77076,"lat":29.8558513,"lng":-95.3663504},{"ID Main Table":8626,"ID Site Name":1061,"Tree Planted Qty":2,"Tree Species Breakdown":"","Tree Size":"","Street Number":"","Street":"","City":"","State":"TX","Zip":"","lat":31.9685988,"lng":-99.9018131},{"ID Main Table":8638,"ID Site Name":1181,"Tree Planted Qty":16,"Tree Species Breakdown":"","Tree Size":"","Street Number":"","Street":"","City":"","State":"TX","Zip":"","lat":31.9685988,"lng":-99.9018131},{"ID Main Table":8616,"ID Site Name":1172,"Tree Planted Qty":220,"Tree Species Breakdown":"Mixed species ( see attached full project specie list)","Tree Size":"5 gal.","Street Number":"","Street":"Mueschke Road","City":"Cypress","State":"TX","Zip":77433,"lat":30.0128708,"lng":-95.7247561},{"ID Main Table":8625,"ID Site Name":236,"Tree Planted Qty":1,"Tree Species Breakdown":"","Tree Size":"","Street Number":"","Street":"","City":"","State":"TX","Zip":"","lat":31.9685988,"lng":-99.9018131},{"ID Main Table":8630,"ID Site Name":55,"Tree Planted Qty":80,"Tree Species Breakdown":"","Tree Size":"","Street Number":"","Street":"","City":"","State":"TX","Zip":"","lat":31.9685988,"lng":-99.9018131},{"ID Main Table":8619,"ID Site Name":500,"Tree Planted Qty":350,"Tree Species Breakdown":"100 Mexican White Oak; 250 Live Oak","Tree Size":"Seedling","Street Number":2200,"Street":"Texas Avenue","City":"Houston","State":"TX","Zip":77003,"lat":29.75296909999999,"lng":-95.3519378},{"ID Main Table":8602,"ID Site Name":317,"Tree Planted Qty":7,"Tree Species Breakdown":"3 red Oak, 1 Redbud, 1 Little Gem Magnolia all from Centerpoint; 2 Live Oak from Bradshaw's Nursery; 3 Pecan from Bownds","Tree Size":"15 gal.","Street Number":14230,"Street":"Memorial Drive","City":"Houston","State":"TX","Zip":77079,"lat":29.7715035,"lng":-95.5965317},{"ID Main Table":8601,"ID Site Name":1087,"Tree Planted Qty":37,"Tree Species Breakdown":"12 Monterrey Oak from Bownds; 25 Monterrey Oak from Bradshaw's Nuresery","Tree Size":"15 gal.","Street Number":1300,"Street":"Velasco Street","City":"Houston","State":"TX","Zip":77003,"lat":29.7433147,"lng":-95.34783569999999},{"ID Main Table":8623,"ID Site Name":1101,"Tree Planted Qty":13,"Tree Species Breakdown":"","Tree Size":"","Street Number":6400,"Street":"Fuqua (West)","City":"Missouri City","State":"TX","Zip":77489,"lat":29.6034157,"lng":-95.4804879},{"ID Main Table":8653,"ID Site Name":440,"Tree Planted Qty":13,"Tree Species Breakdown":"3- 15 gal Sycamore; 1-30 gal. Chisos Oak; 3-45 gal Chinese Fringe Tree; 2-30 gal. Water's Vibernum; all from Treesearch; 4 Chinese Pistache from Lazybrook HOA","Tree Size":"30 gal., 45 gal.","Street Number":"","Street":"18th Street","City":"Houston","State":"TX","Zip":77008,"lat":29.8019992,"lng":-95.3933278},{"ID Main Table":8603,"ID Site Name":882,"Tree Planted Qty":1,"Tree Species Breakdown":"","Tree Size":"65 gal.","Street Number":604,"Street":"West Fairmont","City":"La Porte","State":"TX","Zip":77571,"lat":29.6530785,"lng":-95.0244981},{"ID Main Table":8622,"ID Site Name":1173,"Tree Planted Qty":1,"Tree Species Breakdown":"","Tree Size":"","Street Number":19107,"Street":"Breezeway Cove Drive","City":"Cypress","State":"TX","Zip":77433,"lat":29.9607003,"lng":-95.7415096},{"ID Main Table":8621,"ID Site Name":294,"Tree Planted Qty":8,"Tree Species Breakdown":"","Tree Size":"","Street Number":3617,"Street":"Norris Drive","City":"Houston","State":"TX","Zip":77025,"lat":29.6872402,"lng":-95.4325562},{"ID Main Table":8620,"ID Site Name":294,"Tree Planted Qty":4,"Tree Species Breakdown":"","Tree Size":"","Street Number":3617,"Street":"Norris Drive","City":"Houston","State":"TX","Zip":77025,"lat":29.6872402,"lng":-95.4325562},{"ID Main Table":8639,"ID Site Name":1182,"Tree Planted Qty":15,"Tree Species Breakdown":"","Tree Size":"","Street Number":"","Street":"","City":"","State":"TX","Zip":"","lat":31.9685988,"lng":-99.9018131},{"ID Main Table":8640,"ID Site Name":42,"Tree Planted Qty":3,"Tree Species Breakdown":"Blood Orange; Meyer Lemon;  Celeste Fig","Tree Size":"","Street Number":"","Street":"","City":"","State":"TX","Zip":"","lat":31.9685988,"lng":-99.9018131},{"ID Main Table":8641,"ID Site Name":1183,"Tree Planted Qty":9,"Tree Species Breakdown":"","Tree Size":"","Street Number":"","Street":"","City":"","State":"TX","Zip":"","lat":31.9685988,"lng":-99.9018131},{"ID Main Table":8618,"ID Site Name":1156,"Tree Planted Qty":1,"Tree Species Breakdown":"","Tree Size":"30 gal.","Street Number":"","Street":"","City":"Coldspring","State":"TX","Zip":77331,"lat":30.592421,"lng":-95.12938179999999},{"ID Main Table":8645,"ID Site Name":1185,"Tree Planted Qty":369,"Tree Species Breakdown":"124 Crepe Myrtle; 43 Live Oak; 146 Shumard Oak; 56 Bald Cypress","Tree Size":"15 gal.","Street Number":"","Street":"","City":"Pasadena","State":"TX","Zip":"","lat":29.6910625,"lng":-95.2091006},{"ID Main Table":8642,"ID Site Name":1184,"Tree Planted Qty":21,"Tree Species Breakdown":"","Tree Size":"","Street Number":"","Street":"","City":"Houston","State":"TX","Zip":77042,"lat":29.7246822,"lng":-95.5564777},{"ID Main Table":8694,"ID Site Name":1112,"Tree Planted Qty":80,"Tree Species Breakdown":"60-1 gal Yaupon; 20- 4 gal Black Gum","Tree Size":"1 gal., 5 gal.","Street Number":1719,"Street":"Neptune Lane","City":"Houston","State":"TX","Zip":77062,"lat":29.57124,"lng":-95.116902},{"ID Main Table":8646,"ID Site Name":1186,"Tree Planted Qty":5,"Tree Species Breakdown":"","Tree Size":"45 gal.","Street Number":"","Street":"Purdue","City":"Houston","State":"TX","Zip":77005,"lat":29.7254805,"lng":-95.436944},{"ID Main Table":8647,"ID Site Name":836,"Tree Planted Qty":1,"Tree Species Breakdown":"","Tree Size":"65 gal.","Street Number":1811,"Street":"14th (West) Street","City":"Houston","State":"TX","Zip":77022,"lat":29.795842,"lng":-95.415604},{"ID Main Table":8648,"ID Site Name":1187,"Tree Planted Qty":16,"Tree Species Breakdown":"","Tree Size":"5 gal.","Street Number":2401,"Street":"Meyer (North) Road","City":"Seabrook","State":"TX","Zip":77586,"lat":29.57500989999999,"lng":-95.0162467},{"ID Main Table":8650,"ID Site Name":500,"Tree Planted Qty":250,"Tree Species Breakdown":"","Tree Size":"Seedling","Street Number":"","Street":"","City":"","State":"TX","Zip":77045,"lat":29.643475,"lng":-95.42537569999999},{"ID Main Table":8649,"ID Site Name":500,"Tree Planted Qty":15,"Tree Species Breakdown":"","Tree Size":"Seedling","Street Number":"","Street":"","City":"","State":"TX","Zip":77441,"lat":29.6911759,"lng":-95.93040390000002},{"ID Main Table":8652,"ID Site Name":500,"Tree Planted Qty":2950,"Tree Species Breakdown":"500 Water Oak;425 Slash pines; 125 Loblolly Pine; 1850 Crape Myrtle","Tree Size":"Seedling","Street Number":1500,"Street":"McKinney","City":"Houston","State":"TX","Zip":77010,"lat":29.7541503,"lng":-95.3605381},{"ID Main Table":8651,"ID Site Name":500,"Tree Planted Qty":144,"Tree Species Breakdown":"72 Bur oak; 72 Chicksaw Plum","Tree Size":"5 gal.","Street Number":1500,"Street":"McKinney","City":"Houston","State":"TX","Zip":77010,"lat":29.7541503,"lng":-95.3605381},{"ID Main Table":8654,"ID Site Name":1188,"Tree Planted Qty":53,"Tree Species Breakdown":"","Tree Size":"45 gal.","Street Number":64500,"Street":"Chrenshaw","City":"Pasdena","State":"TX","Zip":77505,"lat":29.6374459,"lng":-95.1509303},{"ID Main Table":8655,"ID Site Name":1076,"Tree Planted Qty":"","Tree Species Breakdown":"","Tree Size":"15 gal.","Street Number":5335,"Street":"Berry Creek  Drive","City":"Houston","State":"TX","Zip":77017,"lat":29.6794106,"lng":-95.24313029999999},{"ID Main Table":8656,"ID Site Name":55,"Tree Planted Qty":2,"Tree Species Breakdown":"","Tree Size":"30 gal.","Street Number":2339,"Street":"Underwood Street","City":"Houston","State":"TX","Zip":77030,"lat":29.699409,"lng":-95.41314299999999},{"ID Main Table":8657,"ID Site Name":915,"Tree Planted Qty":15,"Tree Species Breakdown":"","Tree Size":"Seedling","Street Number":22200,"Street":"Frassati Way","City":"Spring","State":"TX","Zip":77389,"lat":30.0863978,"lng":-95.4872955},{"ID Main Table":8658,"ID Site Name":668,"Tree Planted Qty":1035,"Tree Species Breakdown":"","Tree Size":"Seedling","Street Number":5858,"Street":"Chimney Rock Road","City":"Houston","State":"TX","Zip":77081,"lat":29.7184504,"lng":-95.4772735},{"ID Main Table":8659,"ID Site Name":90,"Tree Planted Qty":150,"Tree Species Breakdown":"","Tree Size":"Seedling","Street Number":2011,"Street":"Solo","City":"Houston","State":"TX","Zip":77020,"lat":29.7797682,"lng":-95.32214979999999},{"ID Main Table":8665,"ID Site Name":500,"Tree Planted Qty":23,"Tree Species Breakdown":"5 Red Oak; 3 Chinquapin Oak; 8 Easter Redbud; 3 Nuttall Oak; 4 Sycamore","Tree Size":"5 gal.","Street Number":"","Street":"","City":"Houston","State":"TX","Zip":77095,"lat":29.9108312,"lng":-95.65631189999999},{"ID Main Table":8669,"ID Site Name":445,"Tree Planted Qty":225,"Tree Species Breakdown":"100 Crape Myrtle; 125 Pine","Tree Size":"Seedling","Street Number":600,"Street":"Quitman Street","City":"Houston","State":"TX","Zip":77009,"lat":29.7808256,"lng":-95.362482},{"ID Main Table":8668,"ID Site Name":500,"Tree Planted Qty":36,"Tree Species Breakdown":"16 Bald Cypress; 20 Yellow Poplar","Tree Size":"5 gal.","Street Number":"","Street":"","City":"Cleveland","State":"TX","Zip":77328,"lat":30.34132,"lng":-95.0854885},{"ID Main Table":8666,"ID Site Name":500,"Tree Planted Qty":12,"Tree Species Breakdown":"1 Yellow Poplar; 5 Crape Myrtle; 2 Easter RedBud; 4 Sycamore","Tree Size":"5 gal.","Street Number":"","Street":"","City":"Hockley","State":"TX","Zip":77447,"lat":30.026861,"lng":-95.8458562},{"ID Main Table":8670,"ID Site Name":500,"Tree Planted Qty":500,"Tree Species Breakdown":"","Tree Size":"Seedling","Street Number":1500,"Street":"Binz Street","City":"Houston","State":"TX","Zip":77004,"lat":29.72274749999999,"lng":-95.385048},{"ID Main Table":8664,"ID Site Name":500,"Tree Planted Qty":30,"Tree Species Breakdown":"2 Bald Cypress; 6 PawPaw;2 Pecan; 6 Wax Myrtle; 2 White Oak; 2 Chicksaw Oak; 2 Chinquapin Oak;4 Cedar Elm; 2 Mayhaw; 2 Swamp Chesnut Oak","Tree Size":"5 gal.","Street Number":"","Street":"","City":"Houston","State":"TX","Zip":77079,"lat":29.7801889,"lng":-95.6090009},{"ID Main Table":8663,"ID Site Name":500,"Tree Planted Qty":10,"Tree Species Breakdown":"2 PawPaw; 2 Chicksaw Plum; 1 Cottonwood; 1 Crape Myrtle; 2 Easter Redbud; 1 Mulbery; 1 Mayhaw","Tree Size":"5 gal.","Street Number":"","Street":"","City":"La Porte","State":"TX","Zip":77365,"lat":29.7290676,"lng":-95.0892544},{"ID Main Table":8662,"ID Site Name":500,"Tree Planted Qty":4,"Tree Species Breakdown":"2 Red Oak; 1 Nuttall Oak; 1 Sycamore","Tree Size":"5 gal.","Street Number":"","Street":"","City":"Humble","State":"TX","Zip":77346,"lat":29.9997656,"lng":-95.1744903},{"ID Main Table":8661,"ID Site Name":500,"Tree Planted Qty":32,"Tree Species Breakdown":"3 Bald Cypress; 8 Red Oak; 1 Wax Myrtle; 2 White Oak; 4 Chicksaw Plum; 9 Crape Myrtle; 5 Easter Redbud","Tree Size":"5 gal.","Street Number":"","Street":"","City":"Kingwood","State":"TX","Zip":77339,"lat":30.0442264,"lng":-95.2162283},{"ID Main Table":8660,"ID Site Name":500,"Tree Planted Qty":4,"Tree Species Breakdown":"1 chinquapin Oak; 3 Sycamore","Tree Size":"5 gal.","Street Number":"","Street":"","City":"Houston","State":"TX","Zip":77015,"lat":29.7690048,"lng":-95.1744903},{"ID Main Table":8667,"ID Site Name":500,"Tree Planted Qty":50,"Tree Species Breakdown":"10 Black Locust; 10 Bur Oak; 10 sawtooth Oak; 10 Sycamore","Tree Size":"5 gal.","Street Number":"","Street":"","City":"Houston","State":"TX","Zip":77081,"lat":29.7161912,"lng":-95.4830243},{"ID Main Table":8671,"ID Site Name":1189,"Tree Planted Qty":96,"Tree Species Breakdown":"35 Texas RedBud; 37 Red Rocket Crape Myrtle; all from Top Notch; 24 Little Gem Magnolia from Treesource Nursery","Tree Size":"15 gal.","Street Number":1400,"Street":"Terminal Street","City":"Houston","State":"TX","Zip":77011,"lat":29.7472396,"lng":-95.3071575},{"ID Main Table":8672,"ID Site Name":1154,"Tree Planted Qty":2,"Tree Species Breakdown":"Chinese Fringe Tree","Tree Size":"45 gal.","Street Number":120,"Street":"Forest Lake Drive","City":"Taylor Lake Village","State":"TX","Zip":77586,"lat":29.5740812,"lng":-95.06313550000002},{"ID Main Table":8676,"ID Site Name":1190,"Tree Planted Qty":8,"Tree Species Breakdown":"3 Bald Cypress; 5 pecan","Tree Size":"5 gal.","Street Number":19834,"Street":"Laurel Trail Drive","City":"Cypress","State":"TX","Zip":77433,"lat":29.888261,"lng":-95.711145},{"ID Main Table":8677,"ID Site Name":1191,"Tree Planted Qty":100,"Tree Species Breakdown":"","Tree Size":"Seedling","Street Number":6424,"Street":"Settlers Village Drive","City":"Katy","State":"TX","Zip":77449,"lat":29.8708412,"lng":-95.73021059999999},{"ID Main Table":8678,"ID Site Name":317,"Tree Planted Qty":500,"Tree Species Breakdown":"325 Pines ; 125 Crape Myrtle; 50 water Oak","Tree Size":"Seedling","Street Number":14230,"Street":"Memorial Drive","City":"Houston","State":"TX","Zip":77079,"lat":29.7715035,"lng":-95.5965317},{"ID Main Table":8679,"ID Site Name":1192,"Tree Planted Qty":100,"Tree Species Breakdown":"","Tree Size":"Seedling","Street Number":5901,"Street":"Fry (North) Road","City":"Katy","State":"TX","Zip":77449,"lat":29.8573989,"lng":-95.7203407},{"ID Main Table":8675,"ID Site Name":129,"Tree Planted Qty":10,"Tree Species Breakdown":"","Tree Size":"5 gal.","Street Number":8501,"Street":"Howard Drive","City":"Houston","State":"TX","Zip":77017,"lat":29.6867028,"lng":-95.2544935},{"ID Main Table":8674,"ID Site Name":337,"Tree Planted Qty":2,"Tree Species Breakdown":"","Tree Size":"15 gal.","Street Number":4410,"Street":"Navigation Boulevard","City":"Houston","State":"TX","Zip":77011,"lat":29.7517576,"lng":-95.32871209999999},{"ID Main Table":8673,"ID Site Name":57,"Tree Planted Qty":1,"Tree Species Breakdown":"Mexican White Oak","Tree Size":"15 gal.","Street Number":1205,"Street":"Richmond Avenue","City":"Houston","State":"TX","Zip":77006,"lat":29.734177,"lng":-95.394212},{"ID Main Table":8682,"ID Site Name":1193,"Tree Planted Qty":1,"Tree Species Breakdown":"","Tree Size":"45 gal.","Street Number":18200,"Street":"Katy Freeway","City":"Houston","State":"TX","Zip":77094,"lat":29.7875327,"lng":-95.6930176},{"ID Main Table":8683,"ID Site Name":500,"Tree Planted Qty":400,"Tree Species Breakdown":"300 Water Oak; 100 Crape Myrtle","Tree Size":"Seedling","Street Number":11445,"Street":"Compaq Center Drive W","City":"Houston","State":"TX","Zip":77070,"lat":29.9904391,"lng":-95.5824174},{"ID Main Table":8680,"ID Site Name":221,"Tree Planted Qty":21,"Tree Species Breakdown":"10 Wax Myrtle; 4 Live Oak; 4 Mexican White Oak; 3 Sycamore","Tree Size":"15 gal.","Street Number":1500,"Street":"Perry Street","City":"Houston","State":"TX","Zip":77021,"lat":29.6945047,"lng":-95.345596},{"ID Main Table":8681,"ID Site Name":1193,"Tree Planted Qty":1,"Tree Species Breakdown":"","Tree Size":"45 gal.","Street Number":1919,"Street":"Braeswood (south) Boulevard","City":"Houston","State":"TX","Zip":77030,"lat":29.6993201,"lng":-95.4049253},{"ID Main Table":8684,"ID Site Name":1193,"Tree Planted Qty":200,"Tree Species Breakdown":"","Tree Size":"Seedling","Street Number":6621,"Street":"Fannin Street","City":"Houston","State":"TX","Zip":77030,"lat":29.7078637,"lng":-95.40157669999999},{"ID Main Table":8686,"ID Site Name":866,"Tree Planted Qty":173,"Tree Species Breakdown":"136- 5 gal Sawtooth Oak, Mayhaw and Chicksaw Plum from Chevron;2 Shumard Oak, 9 plum,4 Magnolia,5 Mulberry,45 gal. ligustrum,1 American Elm,1 Bur Oak, and 7 Loblolly pine all 15gal. From La porte farm;1-15 gal Loquat from treesearch;3-3 gal Lambs Ear-BJW","Tree Size":"3 gal., 5 gal., 15 gal.","Street Number":"","Street":"","City":"La Porte","State":"TX","Zip":77571,"lat":29.6657838,"lng":-95.0193728},{"ID Main Table":8685,"ID Site Name":1194,"Tree Planted Qty":78,"Tree Species Breakdown":"8 Live Oak from Bradshaw's; 7 Mexican Sycamore,21 texas RedBud, and 21 Yaupon  from Bownds; 13 desert willow from centepoint; 8 Desert Willow from Ashlock's Wholesale;","Tree Size":"15 gal.","Street Number":"","Street":"Teichman Point","City":"Galveston","State":"TX","Zip":77554,"lat":29.2796817,"lng":-94.8804761},{"ID Main Table":8690,"ID Site Name":1195,"Tree Planted Qty":15,"Tree Species Breakdown":"10- 5 gal. Crape Myrtle from Chevron; 50-15 gal. Sycamore from Bownds","Tree Size":"5 gal., 15 gal.","Street Number":16711,"Street":"Ella Boulevard","City":"Houston","State":"TX","Zip":77090,"lat":30.0030318,"lng":-95.4438819},{"ID Main Table":8689,"ID Site Name":1195,"Tree Planted Qty":150,"Tree Species Breakdown":"","Tree Size":"Seedling","Street Number":16711,"Street":"Ella Boulevard","City":"Houston","State":"TX","Zip":77090,"lat":30.0030318,"lng":-95.4438819},{"ID Main Table":8688,"ID Site Name":934,"Tree Planted Qty":1025,"Tree Species Breakdown":"800 Crape Myrtle; 225 Water Oak","Tree Size":"Seedling","Street Number":451,"Street":"Kirby Drive","City":"Seabrook","State":"TX","Zip":77586,"lat":29.5713353,"lng":-95.0586874},{"ID Main Table":8687,"ID Site Name":500,"Tree Planted Qty":150,"Tree Species Breakdown":"","Tree Size":"Seedling","Street Number":2929,"Street":"Allen Parkway","City":"Houston","State":"TX","Zip":77019,"lat":29.7607111,"lng":-95.397342},{"ID Main Table":8692,"ID Site Name":500,"Tree Planted Qty":200,"Tree Species Breakdown":"150 crape Myrtle; 25 Cherry Bark Oak; 25 Loblolly pine","Tree Size":"Seedling","Street Number":1212,"Street":"Sam Houston (North) Parkway East","City":"Humble","State":"TX","Zip":77396,"lat":29.9347211,"lng":-95.250981},{"ID Main Table":8693,"ID Site Name":1138,"Tree Planted Qty":1007,"Tree Species Breakdown":"100 Bald Cypress, 188 Bur Oak, 106 Live Oak, 95 Monterey Oak,49 Montezuma Cypress, 75 Cedar Elm, 280 Shumard, all 5 gal; 80 Red Oak, 14 Cedar Elm, and 20 Red Maple , all 15 gal.","Tree Size":"5 gal., 15 gal.","Street Number":"","Street":"","City":"Houston","State":"TX","Zip":"","lat":29.7604267,"lng":-95.3698028},{"ID Main Table":8691,"ID Site Name":461,"Tree Planted Qty":100,"Tree Species Breakdown":"","Tree Size":"Seedling","Street Number":335,"Street":"Piney Ppint Road","City":"Houston","State":"TX","Zip":77024,"lat":29.758433,"lng":-95.51878699999999},{"ID Main Table":8717,"ID Site Name":500,"Tree Planted Qty":25,"Tree Species Breakdown":"4 Bald Cyprees; 11 Crape Myrtle; 4 Iron Wood; 6 Sycamore","Tree Size":"5 gal.","Street Number":"","Street":"","City":"Houston","State":"TX","Zip":77064,"lat":29.9161683,"lng":-95.5302337},{"ID Main Table":8714,"ID Site Name":500,"Tree Planted Qty":9,"Tree Species Breakdown":"8 Crape Myrtle; 1 Red Bud","Tree Size":"5 gal.","Street Number":"","Street":"","City":"Houston","State":"TX","Zip":77038,"lat":29.9196533,"lng":-95.4463322},{"ID Main Table":8712,"ID Site Name":500,"Tree Planted Qty":34,"Tree Species Breakdown":"6 Bald Cypress; 19 Crape Myrtle; 2 Pecan; 2 Plum; 5 Yellow Poplar","Tree Size":"5 gal.","Street Number":"","Street":"","City":"Houston","State":"TX","Zip":77022,"lat":29.8359225,"lng":-95.3782513},{"ID Main Table":8713,"ID Site Name":500,"Tree Planted Qty":13,"Tree Species Breakdown":"6 Crape Myrtle; 1 Iron Wood; 2 Persimon1 Shumard Oak; 1 Sycamore2 Yellow Poplar","Tree Size":"5 gal.","Street Number":"","Street":"","City":"Houston","State":"TX","Zip":77074,"lat":29.6917896,"lng":-95.514493},{"ID Main Table":8711,"ID Site Name":500,"Tree Planted Qty":10,"Tree Species Breakdown":"1 Bur Oak; 7 Crape Myrtle; 1 White Oak; 1 Yelow Poplar","Tree Size":"5 gal.","Street Number":"","Street":"","City":"Houston","State":"TX","Zip":77019,"lat":29.7508512,"lng":-95.4122817},{"ID Main Table":8715,"ID Site Name":500,"Tree Planted Qty":36,"Tree Species Breakdown":"6 Crape Myrtle; 4 Iron Wood;4 Loblolly Pine; 1 Nutall Oak; 2 Paw Paw; 2 pecan; 1 plum; 1 Sycamore; 15 wax Mirtle","Tree Size":"5 gal.","Street Number":"","Street":"","City":"Houston","State":"TX","Zip":77008,"lat":29.7995924,"lng":-95.4201377},{"ID Main Table":8716,"ID Site Name":500,"Tree Planted Qty":8,"Tree Species Breakdown":"3 Crape Myrtle; 1 PawPaw; 2 Pecan; 2 Plum","Tree Size":"5 gal.","Street Number":"","Street":"","City":"Houston","State":"TX","Zip":77053,"lat":29.5724141,"lng":-95.46729619999999},{"ID Main Table":8719,"ID Site Name":500,"Tree Planted Qty":7,"Tree Species Breakdown":"2 Crape Myrtle; 1 Iron Wood; 2 Pecan; 2 Swamp Chesnut Oak","Tree Size":"5 gal.","Street Number":"","Street":"","City":"Houston","State":"TX","Zip":77080,"lat":29.8183406,"lng":-95.5249863},{"ID Main Table":8721,"ID Site Name":500,"Tree Planted Qty":6,"Tree Species Breakdown":"1 Bur Oak; 3 Crape Myrtle; 1 Loblolly Pine; 1 Swamp Chesnut Oak","Tree Size":"5 gal.","Street Number":"","Street":"","City":"Houston","State":"TX","Zip":77098,"lat":29.7333171,"lng":-95.417519},{"ID Main Table":8710,"ID Site Name":500,"Tree Planted Qty":9,"Tree Species Breakdown":"5 Crape Myrtle; 2pecan; 1 swamp Chestnut; 1 Yellow poplar","Tree Size":"5 gal.","Street Number":"","Street":"","City":"Houston","State":"TX","Zip":77015,"lat":29.7690048,"lng":-95.1744903},{"ID Main Table":8720,"ID Site Name":500,"Tree Planted Qty":4,"Tree Species Breakdown":"3 Crape Myrtle; 1 Yellow Poplard","Tree Size":"5 gal.","Street Number":"","Street":"","City":"Houston","State":"TX","Zip":77084,"lat":29.8296506,"lng":-95.6668306},{"ID Main Table":8699,"ID Site Name":500,"Tree Planted Qty":17,"Tree Species Breakdown":"1 Black Locus; 1 Black Oak; 6 Crape Myrtle; 1 Iron Wood; 2 pecan; 3 Red Rocket; 2 Sycamore; 1 Wax Myrtle","Tree Size":"5 gal.","Street Number":"","Street":"","City":"Spring","State":"TX","Zip":77386,"lat":30.0799405,"lng":-95.41716009999999},{"ID Main Table":8709,"ID Site Name":500,"Tree Planted Qty":3,"Tree Species Breakdown":"1 Crape Myrtle; 1Pecan; 1 Swamp Chesnut","Tree Size":"5 gal.","Street Number":"","Street":"","City":"Houston","State":"TX","Zip":77009,"lat":29.7901812,"lng":-95.36778439999999},{"ID Main Table":8696,"ID Site Name":500,"Tree Planted Qty":25,"Tree Species Breakdown":"4 Bald Cypress; 1 Bur Oak; 10 Crape Myrtle; 5 Red Bud; 1 Sawtooth Oak; 3 Shumard Oak, 1 White Oak","Tree Size":"5 gal.","Street Number":"","Street":"","City":"Dayton","State":"TX","Zip":77535,"lat":30.0466051,"lng":-94.8852026},{"ID Main Table":8695,"ID Site Name":500,"Tree Planted Qty":4,"Tree Species Breakdown":"2 Crape Myrtle; 1 Elderberry; 1Pecan","Tree Size":"5 gal.","Street Number":"","Street":"","City":"Lake Jackson","State":"TX","Zip":77566,"lat":29.0620369,"lng":-95.4882679},{"ID Main Table":8697,"ID Site Name":500,"Tree Planted Qty":20,"Tree Species Breakdown":"16 Crape Myrtle; 4 Pecan","Tree Size":"5 gal.","Street Number":"","Street":"","City":"Crosby","State":"TX","Zip":77532,"lat":29.9118885,"lng":-95.0621512},{"ID Main Table":8698,"ID Site Name":500,"Tree Planted Qty":23,"Tree Species Breakdown":"4Bur Oak; 5 Crape Myrtle; 5 Pecan; 6 Red Oak; 2 Shumard; 1 White oak","Tree Size":"5 gal.","Street Number":"","Street":"","City":"Cypress","State":"TX","Zip":77433,"lat":29.9643725,"lng":-95.7510475},{"ID Main Table":8700,"ID Site Name":500,"Tree Planted Qty":6,"Tree Species Breakdown":"4 Crape Myrtle; 2 Paw Paw","Tree Size":"5 gal.","Street Number":"","Street":"","City":"Porter","State":"TX","Zip":77365,"lat":30.1044506,"lng":-95.2364276},{"ID Main Table":8701,"ID Site Name":500,"Tree Planted Qty":34,"Tree Species Breakdown":"2 Bald cypress; 2 Black Oak; 4 Bur Oak; 5 Crape Myrtle; 2 Fig; 1 Iron Wood; 4 Pecan; 2 Red Oak; 2 Red Bud; 6 Shumard Oak; 1 Sycamore; 2 Wax Myrtle; 1 White oak","Tree Size":"5 gal.","Street Number":"","Street":"","City":"Humble","State":"TX","Zip":77346,"lat":29.9997656,"lng":-95.1744903},{"ID Main Table":8702,"ID Site Name":500,"Tree Planted Qty":24,"Tree Species Breakdown":"2 Bur Oak; 14 Crape Myrtle; 2 Live Oak; 2 Shumard Oak; 2 Yellow Poplar","Tree Size":"5 gal.","Street Number":"","Street":"","City":"Kingwood","State":"TX","Zip":77339,"lat":30.0442264,"lng":-95.2162283},{"ID Main Table":8703,"ID Site Name":500,"Tree Planted Qty":6,"Tree Species Breakdown":"","Tree Size":"5 gal.","Street Number":"","Street":"","City":"Houston","State":"TX","Zip":77047,"lat":29.5981013,"lng":-95.4044268},{"ID Main Table":8704,"ID Site Name":500,"Tree Planted Qty":5,"Tree Species Breakdown":"2 Bald Cypress; 2 Bur Oak; 1 Yellow Poplar","Tree Size":"5 gal.","Street Number":"","Street":"","City":"Montgomery","State":"TX","Zip":77316,"lat":30.3882613,"lng":-95.69633549999999},{"ID Main Table":8705,"ID Site Name":500,"Tree Planted Qty":17,"Tree Species Breakdown":"2 Bur Oak; 7  Crape Myrtle; 4 PawPaw; 1 Persimon; 1 Turks Caps; 2 Yellow Poplar","Tree Size":"5 gal.","Street Number":"","Street":"","City":"Pearland","State":"TX","Zip":77584,"lat":29.5321026,"lng":-95.3207069},{"ID Main Table":8706,"ID Site Name":500,"Tree Planted Qty":4,"Tree Species Breakdown":"","Tree Size":"5 gal.","Street Number":"","Street":"","City":"Conroe","State":"TX","Zip":77304,"lat":30.3315253,"lng":-95.509247},{"ID Main Table":8707,"ID Site Name":500,"Tree Planted Qty":31,"Tree Species Breakdown":"9 Baldc Cypress; 4 Black Locus; 4 Crape Myrtle; 3 Elder Berry; Long Leaf Pine;3 Pawpaw; 2 Plum; 2 Turks Cap; 2 Yelow Poplar","Tree Size":"5 gal.","Street Number":"","Street":"","City":"Conroe","State":"TX","Zip":77302,"lat":30.2123622,"lng":-95.33116520000002},{"ID Main Table":8708,"ID Site Name":500,"Tree Planted Qty":20,"Tree Species Breakdown":"2 Bald Cypress; 10 Crape Myrtle; 8 Pecan","Tree Size":"5 gal.","Street Number":"","Street":"","City":"Houston","State":"TX","Zip":77035,"lat":29.64645269999999,"lng":-95.4935119},{"ID Main Table":8718,"ID Site Name":1196,"Tree Planted Qty":50,"Tree Species Breakdown":"Japanese Blueberry; Crape Myrtle; Shumard Oak","Tree Size":"5 gal.","Street Number":5919,"Street":"De Moss Drive","City":"Houston","State":"TX","Zip":77081,"lat":29.708007,"lng":-95.485862},{"ID Main Table":8724,"ID Site Name":1197,"Tree Planted Qty":30,"Tree Species Breakdown":"10 Bald Cypress; 10 Sycamore; 10 White Oak","Tree Size":"15 gal.","Street Number":5150,"Street":"Red Bluff Road","City":"Pasadena","State":"TX","Zip":77503,"lat":29.66926279999999,"lng":-95.13824729999999},{"ID Main Table":8598,"ID Site Name":955,"Tree Planted Qty":1,"Tree Species Breakdown":"","Tree Size":"15 gal.","Street Number":5521,"Street":"Gasmer Road","City":"Houston","State":"TX","Zip":77035,"lat":29.650997,"lng":-95.474056},{"ID Main Table":8725,"ID Site Name":1199,"Tree Planted Qty":4,"Tree Species Breakdown":"2 White Oak; 2 Pecan","Tree Size":"5 gal.","Street Number":319,"Street":"Caplin Street","City":"Houston","State":"TX","Zip":77022,"lat":29.81578,"lng":-95.36758499999999},{"ID Main Table":8754,"ID Site Name":500,"Tree Planted Qty":12,"Tree Species Breakdown":"","Tree Size":"5 gal.","Street Number":"","Street":"","City":"Houston","State":"TX","Zip":77092,"lat":29.8265052,"lng":-95.46729619999999},{"ID Main Table":8760,"ID Site Name":500,"Tree Planted Qty":3,"Tree Species Breakdown":"","Tree Size":"5 gal.","Street Number":"","Street":"","City":"Bellaire","State":"TX","Zip":77401,"lat":29.7057858,"lng":-95.4588299},{"ID Main Table":8759,"ID Site Name":500,"Tree Planted Qty":10,"Tree Species Breakdown":"","Tree Size":"5 gal.","Street Number":"","Street":"","City":"Hamble","State":"TX","Zip":77396,"lat":29.99883119999999,"lng":-95.26215529999999},{"ID Main Table":8761,"ID Site Name":500,"Tree Planted Qty":4,"Tree Species Breakdown":"","Tree Size":"5 gal.","Street Number":"","Street":"","City":"Katy","State":"TX","Zip":77450,"lat":29.7457034,"lng":-95.7405139},{"ID Main Table":8758,"ID Site Name":500,"Tree Planted Qty":14,"Tree Species Breakdown":"","Tree Size":"5 gal.","Street Number":"","Street":"","City":"Tomball","State":"TX","Zip":77375,"lat":30.0971621,"lng":-95.6160549},{"ID Main Table":8757,"ID Site Name":500,"Tree Planted Qty":28,"Tree Species Breakdown":"","Tree Size":"5 gal.","Street Number":"","Street":"","City":"Conroe","State":"TX","Zip":77302,"lat":30.2123622,"lng":-95.33116520000002},{"ID Main Table":8762,"ID Site Name":500,"Tree Planted Qty":12,"Tree Species Breakdown":"","Tree Size":"5 gal.","Street Number":"","Street":"","City":"Missouri City","State":"TX","Zip":77459,"lat":29.4773092,"lng":-95.5302337},{"ID Main Table":8755,"ID Site Name":500,"Tree Planted Qty":29,"Tree Species Breakdown":"","Tree Size":"5 gal.","Street Number":"","Street":"","City":"Houston","State":"TX","Zip":77093,"lat":29.85471429999999,"lng":-95.34162549999999},{"ID Main Table":8753,"ID Site Name":500,"Tree Planted Qty":2,"Tree Species Breakdown":"","Tree Size":"5 gal.","Street Number":"","Street":"","City":"Houston","State":"TX","Zip":77086,"lat":29.9179181,"lng":-95.4882679},{"ID Main Table":8756,"ID Site Name":500,"Tree Planted Qty":6,"Tree Species Breakdown":"","Tree Size":"5 gal.","Street Number":"","Street":"","City":"Houston","State":"TX","Zip":77096,"lat":29.6699914,"lng":-95.4830243},{"ID Main Table":8763,"ID Site Name":500,"Tree Planted Qty":10,"Tree Species Breakdown":"","Tree Size":"5 gal.","Street Number":"","Street":"","City":"Katy","State":"TX","Zip":77494,"lat":29.7857853,"lng":-95.8243956},{"ID Main Table":8764,"ID Site Name":500,"Tree Planted Qty":31,"Tree Species Breakdown":"","Tree Size":"5 gal.","Street Number":"","Street":"","City":"Sugarland","State":"TX","Zip":77498,"lat":29.6338457,"lng":-95.65631189999999},{"ID Main Table":8765,"ID Site Name":500,"Tree Planted Qty":5,"Tree Species Breakdown":"","Tree Size":"5 gal.","Street Number":"","Street":"","City":"Katy","State":"TX","Zip":77449,"lat":29.8260177,"lng":-95.7510475},{"ID Main Table":8766,"ID Site Name":500,"Tree Planted Qty":2,"Tree Species Breakdown":"","Tree Size":"5 gal.","Street Number":"","Street":"","City":"Pasadena","State":"TX","Zip":77502,"lat":29.6813519,"lng":-95.2005729},{"ID Main Table":8768,"ID Site Name":500,"Tree Planted Qty":26,"Tree Species Breakdown":"","Tree Size":"5 gal.","Street Number":"","Street":"","City":"Crosby","State":"TX","Zip":77532,"lat":29.9118885,"lng":-95.0621512},{"ID Main Table":8750,"ID Site Name":500,"Tree Planted Qty":6,"Tree Species Breakdown":"","Tree Size":"5 gal.","Street Number":"","Street":"","City":"Houston","State":"TX","Zip":77082,"lat":29.7253361,"lng":-95.67735119999999},{"ID Main Table":8769,"ID Site Name":500,"Tree Planted Qty":9,"Tree Species Breakdown":"","Tree Size":"5 gal.","Street Number":"","Street":"","City":"Deer Park","State":"TX","Zip":77536,"lat":29.7052284,"lng":-95.1238204},{"ID Main Table":8770,"ID Site Name":500,"Tree Planted Qty":10,"Tree Species Breakdown":"","Tree Size":"5 gal.","Street Number":"","Street":"","City":"Fresno","State":"TX","Zip":77545,"lat":29.5388465,"lng":-95.4474414},{"ID Main Table":8771,"ID Site Name":500,"Tree Planted Qty":1,"Tree Species Breakdown":"","Tree Size":"5 gal.","Street Number":"","Street":"","City":"Hitchcock","State":"TX","Zip":77563,"lat":29.2999279,"lng":-95.0390536},{"ID Main Table":8772,"ID Site Name":500,"Tree Planted Qty":7,"Tree Species Breakdown":"","Tree Size":"5 gal.","Street Number":"","Street":"","City":"League City","State":"TX","Zip":77573,"lat":29.4947986,"lng":-95.09110620000001},{"ID Main Table":8773,"ID Site Name":500,"Tree Planted Qty":15,"Tree Species Breakdown":"","Tree Size":"5 gal.","Street Number":"","Street":"","City":"Rosharon","State":"TX","Zip":77584,"lat":29.4039331,"lng":-95.25968449999999},{"ID Main Table":8774,"ID Site Name":500,"Tree Planted Qty":10,"Tree Species Breakdown":"","Tree Size":"5 gal.","Street Number":"","Street":"","City":"Navasota","State":"TX","Zip":77868,"lat":30.3879845,"lng":-96.0877349},{"ID Main Table":8767,"ID Site Name":500,"Tree Planted Qty":26,"Tree Species Breakdown":"","Tree Size":"5 gal.","Street Number":"","Street":"","City":"Alvin","State":"TX","Zip":77511,"lat":29.3845708,"lng":-95.2475518},{"ID Main Table":8746,"ID Site Name":500,"Tree Planted Qty":6,"Tree Species Breakdown":"","Tree Size":"5 gal.","Street Number":"","Street":"","City":"Houston","State":"TX","Zip":77074,"lat":29.6917896,"lng":-95.514493},{"ID Main Table":8734,"ID Site Name":500,"Tree Planted Qty":7,"Tree Species Breakdown":"","Tree Size":"5 gal.","Street Number":"","Street":"","City":"Houston","State":"TX","Zip":77023,"lat":29.7114589,"lng":-95.31547839999999},{"ID Main Table":8735,"ID Site Name":500,"Tree Planted Qty":12,"Tree Species Breakdown":"","Tree Size":"5 gal.","Street Number":"","Street":"","City":"Houston","State":"TX","Zip":77025,"lat":29.6836967,"lng":-95.4306141},{"ID Main Table":8736,"ID Site Name":500,"Tree Planted Qty":4,"Tree Species Breakdown":"","Tree Size":"5 gal.","Street Number":"","Street":"","City":"Houston","State":"TX","Zip":77028,"lat":29.8341518,"lng":-95.27889259999999},{"ID Main Table":8737,"ID Site Name":500,"Tree Planted Qty":18,"Tree Species Breakdown":"","Tree Size":"5 gal.","Street Number":"","Street":"","City":"Houston","State":"TX","Zip":77030,"lat":29.7050857,"lng":-95.40180869999999},{"ID Main Table":8738,"ID Site Name":500,"Tree Planted Qty":3,"Tree Species Breakdown":"","Tree Size":"5 gal.","Street Number":"","Street":"","City":"Houston","State":"TX","Zip":77035,"lat":29.64645269999999,"lng":-95.4935119},{"ID Main Table":8739,"ID Site Name":500,"Tree Planted Qty":6,"Tree Species Breakdown":"","Tree Size":"5 gal.","Street Number":"","Street":"","City":"Houston","State":"TX","Zip":77044,"lat":29.8963788,"lng":-95.16406049999999},{"ID Main Table":8740,"ID Site Name":500,"Tree Planted Qty":3,"Tree Species Breakdown":"","Tree Size":"5 gal.","Street Number":"","Street":"","City":"Houston","State":"TX","Zip":77047,"lat":29.5981013,"lng":-95.4044268},{"ID Main Table":8741,"ID Site Name":500,"Tree Planted Qty":4,"Tree Species Breakdown":"","Tree Size":"5 gal.","Street Number":"","Street":"","City":"Houston","State":"TX","Zip":77062,"lat":29.568591,"lng":-95.1275716},{"ID Main Table":8742,"ID Site Name":500,"Tree Planted Qty":11,"Tree Species Breakdown":"","Tree Size":"5 gal.","Street Number":"","Street":"","City":"Houston","State":"TX","Zip":77064,"lat":29.9161683,"lng":-95.5302337},{"ID Main Table":8743,"ID Site Name":500,"Tree Planted Qty":1,"Tree Species Breakdown":"","Tree Size":"5 gal.","Street Number":"","Street":"","City":"Houston","State":"TX","Zip":77066,"lat":29.9631614,"lng":-95.509247},{"ID Main Table":8730,"ID Site Name":500,"Tree Planted Qty":5,"Tree Species Breakdown":"","Tree Size":"5 gal.","Street Number":"","Street":"","City":"Houston","State":"TX","Zip":77009,"lat":29.7901812,"lng":-95.36778439999999},{"ID Main Table":8745,"ID Site Name":500,"Tree Planted Qty":2,"Tree Species Breakdown":"","Tree Size":"5 gal.","Street Number":"","Street":"","City":"Houston","State":"TX","Zip":77071,"lat":29.6451476,"lng":-95.5249863},{"ID Main Table":8752,"ID Site Name":500,"Tree Planted Qty":4,"Tree Species Breakdown":"","Tree Size":"5 gal.","Street Number":"","Street":"","City":"Houston","State":"TX","Zip":77084,"lat":29.8296506,"lng":-95.6668306},{"ID Main Table":8747,"ID Site Name":500,"Tree Planted Qty":1,"Tree Species Breakdown":"","Tree Size":"5 gal.","Street Number":"","Street":"","City":"Houston","State":"TX","Zip":77079,"lat":29.7801889,"lng":-95.6090009},{"ID Main Table":8748,"ID Site Name":500,"Tree Planted Qty":8,"Tree Species Breakdown":"","Tree Size":"5 gal.","Street Number":"","Street":"","City":"Houston","State":"TX","Zip":77080,"lat":29.8183406,"lng":-95.5249863},{"ID Main Table":8733,"ID Site Name":500,"Tree Planted Qty":23,"Tree Species Breakdown":"","Tree Size":"5 gal.","Street Number":"","Street":"","City":"Houston","State":"TX","Zip":77021,"lat":29.69822589999999,"lng":-95.3573194},{"ID Main Table":8749,"ID Site Name":500,"Tree Planted Qty":3,"Tree Species Breakdown":"","Tree Size":"5 gal.","Street Number":"","Street":"","City":"Houston","State":"TX","Zip":77081,"lat":29.7161912,"lng":-95.4830243},{"ID Main Table":8732,"ID Site Name":500,"Tree Planted Qty":21,"Tree Species Breakdown":"","Tree Size":"5 gal.","Street Number":"","Street":"","City":"Houston","State":"TX","Zip":77020,"lat":29.7692001,"lng":-95.31547839999999},{"ID Main Table":8731,"ID Site Name":500,"Tree Planted Qty":4,"Tree Species Breakdown":"","Tree Size":"5 gal.","Street Number":"","Street":"","City":"Houston","State":"TX","Zip":77015,"lat":29.7690048,"lng":-95.1744903},{"ID Main Table":8751,"ID Site Name":500,"Tree Planted Qty":6,"Tree Species Breakdown":"","Tree Size":"5 gal.","Street Number":"","Street":"","City":"Houston","State":"TX","Zip":77083,"lat":29.697594,"lng":-95.6510533},{"ID Main Table":8729,"ID Site Name":500,"Tree Planted Qty":10,"Tree Species Breakdown":"","Tree Size":"5 gal.","Street Number":"","Street":"","City":"Houston","State":"TX","Zip":77005,"lat":29.7183467,"lng":-95.4306141},{"ID Main Table":8728,"ID Site Name":500,"Tree Planted Qty":1,"Tree Species Breakdown":"","Tree Size":"5 gal.","Street Number":"","Street":"","City":"Houston","State":"TX","Zip":77004,"lat":29.7209034,"lng":-95.36778439999999},{"ID Main Table":8727,"ID Site Name":500,"Tree Planted Qty":6,"Tree Species Breakdown":"","Tree Size":"5 gal.","Street Number":"","Street":"","City":"Houston","State":"TX","Zip":77003,"lat":29.753611,"lng":-95.3442408},{"ID Main Table":8726,"ID Site Name":683,"Tree Planted Qty":152,"Tree Species Breakdown":"150 seedlings- Read Oak from Bownds ; 5- gal.Read Oak from Chevron","Tree Size":"5 gal., Seedling","Street Number":3311,"Street":"Beauchamp Street","City":"Houston","State":"TX","Zip":77009,"lat":29.7890089,"lng":-95.37466640000001},{"ID Main Table":8744,"ID Site Name":500,"Tree Planted Qty":16,"Tree Species Breakdown":"","Tree Size":"5 gal.","Street Number":"","Street":"","City":"Houston","State":"TX","Zip":77070,"lat":29.96018789999999,"lng":-95.5587992},{"ID Main Table":8778,"ID Site Name":19,"Tree Planted Qty":20,"Tree Species Breakdown":"","Tree Size":"15 gal.","Street Number":4528,"Street":"Leeland Street","City":"Houston","State":"TX","Zip":77023,"lat":29.7343457,"lng":-95.33328709999999},{"ID Main Table":"","ID Site Name":"","Tree Planted Qty":25955,"Tree Species Breakdown":"","Tree Size":"","Street Number":"","Street":"","City":"","State":"","Zip":""}]